[{"id":"341","title":"K.Kasakausko g. 7, Akmen\u0117","postal_code":"LT-85367","code":"2402","address":"K.Kasakausko g. 7, Akmen\u0117","city":"Akmen\u0117","name_for_sorting":"Akmen\u0117","magento_region_id":"480","magento_region_code":"LT-SA","magento_region_name":"\u0160iauli\u0173 Apskritis"},{"id":"77","title":"Jazmin\u0173 g. 32A, Alytus","postal_code":"LT-63188","code":"0702","address":"Jazmin\u0173 g. 32A, Alytus","city":"Alytus","name_for_sorting":"Alytus","magento_region_id":"475","magento_region_code":"LT-AL","magento_region_name":"Alytaus Apskritis"},{"id":"117","title":"Jaunimo g. 24-1, Alytus","postal_code":"LT-63351","code":"0703","address":"Jaunimo g. 24-1, Alytus","city":"Alytus","name_for_sorting":"Alytus","magento_region_id":"475","magento_region_code":"LT-AL","magento_region_name":"Alytaus Apskritis"},{"id":"293","title":"Topoli\u0173 g. 1, Alytus","postal_code":"LT-63337","code":"0704","address":"Topoli\u0173 g. 1, Alytus","city":"Alytus","name_for_sorting":"Alytus","magento_region_id":"475","magento_region_code":"LT-AL","magento_region_name":"Alytaus Apskritis"},{"id":"424","title":"\u016adrijos g. 1, Alytus","postal_code":"LT-62411","code":"0705","address":"\u016adrijos g. 1, Alytus","city":"Alytus","name_for_sorting":"Alytus","magento_region_id":"475","magento_region_code":"LT-AL","magento_region_name":"Alytaus Apskritis"},{"id":"455","title":"Jurgi\u0161ki\u0173 g. 2, Alytus","postal_code":"LT-63131","code":"0706","address":"Jurgi\u0161ki\u0173 g. 2, Alytus","city":"Alytus","name_for_sorting":"Alytus","magento_region_id":"475","magento_region_code":"LT-AL","magento_region_name":"Alytaus Apskritis"},{"id":"513","title":"Statybinink\u0173 g. 71A, Alytus","postal_code":"LT-63403","code":"7514","address":"Statybinink\u0173 g. 71A, Alytus","city":"Alytus","name_for_sorting":"Alytus","magento_region_id":"475","magento_region_code":"LT-AL","magento_region_name":"Alytaus Apskritis"},{"id":"557","title":"\u016adrijos g. 1, Alytus","postal_code":"LT-62411","code":"7543","address":"\u016adrijos g. 1, Alytus","city":"Alytus","name_for_sorting":"Alytus","magento_region_id":"475","magento_region_code":"LT-AL","magento_region_name":"Alytaus Apskritis"},{"id":"576","title":"Santaikos g. 30M, Alytus","postal_code":"LT-62123","code":"0708","address":"Santaikos g. 30M, Alytus","city":"Alytus","name_for_sorting":"Alytus","magento_region_id":"475","magento_region_code":"LT-AL","magento_region_name":"Alytaus Apskritis"},{"id":"477","title":"\u017dirg\u0173 g. 24, Ante\u017eeriai","postal_code":"LT-14158","code":"0197","address":"\u017dirg\u0173 g. 24, Ante\u017eeriai","city":"Ante\u017eeriai","name_for_sorting":"Ante\u017eeriai","magento_region_id":"484","magento_region_code":"LT-VL","magento_region_name":"Vilniaus Apskritis"},{"id":"60","title":"\u017diburio g. 12, Anyk\u0161\u010diai","postal_code":"LT-29160","code":"3001","address":"\u017diburio g. 12, Anyk\u0161\u010diai","city":"Anyk\u0161\u010diai","name_for_sorting":"Anyk\u0161\u010diai","magento_region_id":"483","magento_region_code":"LT-UT","magento_region_name":"Utenos Apskritis"},{"id":"462","title":"Vilniaus g. 22, Anyk\u0161\u010diai","postal_code":"LT-29145","code":"3002","address":"Vilniaus g. 22, Anyk\u0161\u010diai","city":"Anyk\u0161\u010diai","name_for_sorting":"Anyk\u0161\u010diai","magento_region_id":"483","magento_region_code":"LT-UT","magento_region_name":"Utenos Apskritis"},{"id":"425","title":"Taurupio g. 15A, Ariogala","postal_code":"LT-60251","code":"2602","address":"Taurupio g. 15A, Ariogala","city":"Ariogala","name_for_sorting":"Ariogala","magento_region_id":"476","magento_region_code":"LT-KU","magento_region_name":"Kauno Apskritis"},{"id":"483","title":"Vilniaus g. 29, Auk\u0161tadvaris ","postal_code":"LT-21254","code":"5108","address":"Vilniaus g. 29, Auk\u0161tadvaris ","city":"Auk\u0161tadvaris ","name_for_sorting":"Auk\u0161tadvaris ","magento_region_id":"484","magento_region_code":"LT-VL","magento_region_name":"Vilniaus Apskritis"},{"id":"364","title":"Kauno g. 2C, Babtai","postal_code":"LT-54331","code":"4302","address":"Kauno g. 2C, Babtai","city":"Babtai","name_for_sorting":"Babtai","magento_region_id":"476","magento_region_code":"LT-KU","magento_region_name":"Kauno Apskritis"},{"id":"357","title":"Maironio g. 44, Baisogala","postal_code":"LT-82320","code":"1902","address":"Maironio g. 44, Baisogala","city":"Baisogala","name_for_sorting":"Baisogala","magento_region_id":"480","magento_region_code":"LT-SA","magento_region_name":"\u0160iauli\u0173 Apskritis"},{"id":"409","title":"S. Dariaus ir S. Gir\u0117no g. 24, Bir\u0161tonas","postal_code":"LT-59212","code":"3202","address":"S. Dariaus ir S. Gir\u0117no g. 24, Bir\u0161tonas","city":"Bir\u0161tonas","name_for_sorting":"Bir\u0161tonas","magento_region_id":"476","magento_region_code":"LT-KU","magento_region_name":"Kauno Apskritis"},{"id":"57","title":"Vabalninko g. 8a, Bir\u017eai","postal_code":"LT-41132","code":"2701","address":"Vabalninko g. 8a, Bir\u017eai","city":"Bir\u017eai","name_for_sorting":"Bir\u017eai","magento_region_id":"476","magento_region_code":"LT-KU","magento_region_name":"Kauno Apskritis"},{"id":"343","title":"Vytauto g. 27, Bir\u017eai","postal_code":"LT-41172","code":"2702","address":"Vytauto g. 27, Bir\u017eai","city":"Bir\u017eai","name_for_sorting":"Bir\u017eai","magento_region_id":"476","magento_region_code":"LT-KU","magento_region_name":"Kauno Apskritis"},{"id":"55","title":"M. K. \u010ciurlionio g. 50, Druskininkai","postal_code":"LT-66142","code":"2501","address":"M. K. \u010ciurlionio g. 50, Druskininkai","city":"Druskininkai","name_for_sorting":"Druskininkai","magento_region_id":"475","magento_region_code":"LT-AL","magento_region_name":"Alytaus Apskritis"},{"id":"342","title":"M.K \u010ciurlionio g. 107, Druskininkai","postal_code":"LT-66161","code":"2502","address":"M.K \u010ciurlionio g. 107, Druskininkai","city":"Druskininkai","name_for_sorting":"Druskininkai","magento_region_id":"475","magento_region_code":"LT-AL","magento_region_name":"Alytaus Apskritis"},{"id":"475","title":"Leipalingio g. 1, Druskininkai","postal_code":"LT-66371","code":"2503","address":"Leipalingio g. 1, Druskininkai","city":"Druskininkai","name_for_sorting":"Druskininkai","magento_region_id":"475","magento_region_code":"LT-AL","magento_region_name":"Alytaus Apskritis"},{"id":"422","title":"Gegu\u017e\u0117s a. 18, Ei\u0161i\u0161k\u0117s","postal_code":"LT-17174","code":"5205","address":"Gegu\u017e\u0117s a. 18, Ei\u0161i\u0161k\u0117s","city":"Ei\u0161i\u0161k\u0117s","name_for_sorting":"Ei\u0161i\u0161k\u0117s","magento_region_id":"484","magento_region_code":"LT-VL","magento_region_name":"Vilniaus Apskritis"},{"id":"51","title":"Rungos g. 4, Elektr\u0117nai","postal_code":"LT-26109","code":"2101","address":"Rungos g. 4, Elektr\u0117nai","city":"Elektr\u0117nai","name_for_sorting":"Elektr\u0117nai","magento_region_id":"484","magento_region_code":"LT-VL","magento_region_name":"Vilniaus Apskritis"},{"id":"306","title":"Sabali\u0161ki\u0173 g. 1D, Elektr\u0117nai","postal_code":"LT-26141","code":"2102","address":"Sabali\u0161ki\u0173 g. 1D, Elektr\u0117nai","city":"Elektr\u0117nai","name_for_sorting":"Elektr\u0117nai","magento_region_id":"484","magento_region_code":"LT-VL","magento_region_name":"Vilniaus Apskritis"},{"id":"441","title":"Trak\u0173 g. 4, Elektr\u0117nai","postal_code":"LT-26118","code":"2105","address":"Trak\u0173 g. 4, Elektr\u0117nai","city":"Elektr\u0117nai","name_for_sorting":"Elektr\u0117nai","magento_region_id":"484","magento_region_code":"LT-VL","magento_region_name":"Vilniaus Apskritis"},{"id":"79","title":"Klaip\u0117dos g. 41, Garg\u017edai","postal_code":"LT-96143","code":"4501","address":"Klaip\u0117dos g. 41, Garg\u017edai","city":"Garg\u017edai","name_for_sorting":"Garg\u017edai","magento_region_id":"477","magento_region_code":"LT-KL","magento_region_name":"Klaip\u0117dos Apskritis"},{"id":"416","title":"Vasarios 16-osios g.45, Garg\u017edai","postal_code":"LT-96119","code":"4502","address":"Vasarios 16-osios g.45, Garg\u017edai","city":"Garg\u017edai","name_for_sorting":"Garg\u017edai","magento_region_id":"477","magento_region_code":"LT-KL","magento_region_name":"Klaip\u0117dos Apskritis"},{"id":"447","title":"Pu\u0161\u0173 g. 40, Garg\u017edai","postal_code":"LT-96145","code":"4503","address":"Pu\u0161\u0173 g. 40, Garg\u017edai","city":"Garg\u017edai","name_for_sorting":"Garg\u017edai","magento_region_id":"477","magento_region_code":"LT-KL","magento_region_name":"Klaip\u0117dos Apskritis"},{"id":"102","title":"Vytauto g. 67, Garliava","postal_code":"LT-53258","code":"5001","address":"Vytauto g. 67, Garliava","city":"Garliava","name_for_sorting":"Garliava","magento_region_id":"476","magento_region_code":"LT-KU","magento_region_name":"Kauno Apskritis"},{"id":"420","title":"S. Lozorai\u010dio g. 2, Garliava","postal_code":"LT-53237","code":"5003","address":"S. Lozorai\u010dio g. 2, Garliava","city":"Garliava","name_for_sorting":"Garliava","magento_region_id":"476","magento_region_code":"LT-KU","magento_region_name":"Kauno Apskritis"},{"id":"566","title":"S. Lozorai\u010dio g. 2, Garliava","postal_code":"LT-53237","code":"7554","address":"S. Lozorai\u010dio g. 2, Garliava","city":"Garliava","name_for_sorting":"Garliava","magento_region_id":"476","magento_region_code":"LT-KU","magento_region_name":"Kauno Apskritis"},{"id":"553","title":"\u017dalioji g. 36, Ginduli\u0173 k., Klaip\u0117dos r., Ginduliai","postal_code":"LT-91276","code":"0326","address":"\u017dalioji g. 36, Ginduli\u0173 k., Klaip\u0117dos r., Ginduliai","city":"Ginduliai","name_for_sorting":"Ginduliai"},{"id":"30","title":"Rasos g. 1A, Gink\u016bnai","postal_code":"LT-81495","code":"0402","address":"Rasos g. 1A, Gink\u016bnai","city":"Gink\u016bnai","name_for_sorting":"Gink\u016bnai","magento_region_id":"480","magento_region_code":"LT-SA","magento_region_name":"\u0160iauli\u0173 Apskritis"},{"id":"488","title":"Automagistral\u0117s g. 4, Girait\u0117","postal_code":"LT-54310","code":"0258","address":"Automagistral\u0117s g. 4, Girait\u0117","city":"Girait\u0117","name_for_sorting":"Girait\u0117","magento_region_id":"477","magento_region_code":"LT-KL","magento_region_name":"Klaip\u0117dos Apskritis"},{"id":"128","title":"Kovo 11-osios g. 38B, Grigi\u0161k\u0117s","postal_code":"LT-27114","code":"5101","address":"Kovo 11-osios g. 38B, Grigi\u0161k\u0117s","city":"Grigi\u0161k\u0117s","name_for_sorting":"Grigi\u0161k\u0117s","magento_region_id":"484","magento_region_code":"LT-VL","magento_region_name":"Vilniaus Apskritis"},{"id":"456","title":"Kovo 11-osios g. 71, Grigi\u0161k\u0117s","postal_code":"LT-27124","code":"5106","address":"Kovo 11-osios g. 71, Grigi\u0161k\u0117s","city":"Grigi\u0161k\u0117s","name_for_sorting":"Grigi\u0161k\u0117s","magento_region_id":"484","magento_region_code":"LT-VL","magento_region_name":"Vilniaus Apskritis"},{"id":"68","title":"Taikos g. 11, Ignalina","postal_code":"LT-30125","code":"3801","address":"Taikos g. 11, Ignalina","city":"Ignalina","name_for_sorting":"Ignalina","magento_region_id":"483","magento_region_code":"LT-UT","magento_region_name":"Utenos Apskritis"},{"id":"440","title":"Laisv\u0117s g. 64, Ignalina","postal_code":"LT-30115","code":"3802","address":"Laisv\u0117s g. 64, Ignalina","city":"Ignalina","name_for_sorting":"Ignalina","magento_region_id":"483","magento_region_code":"LT-UT","magento_region_name":"Utenos Apskritis"},{"id":"348","title":"M.Balinsko g. 2, Ja\u0161i\u016bnai","postal_code":"LT-17249","code":"5202","address":"M.Balinsko g. 2, Ja\u0161i\u016bnai","city":"Ja\u0161i\u016bnai","name_for_sorting":"Ja\u0161i\u016bnai","magento_region_id":"484","magento_region_code":"LT-VL","magento_region_name":"Vilniaus Apskritis"},{"id":"40","title":"Chemik\u0173 g. 2, Jonava","postal_code":"LT-55255","code":"1001","address":"Chemik\u0173 g. 2, Jonava","city":"Jonava","name_for_sorting":"Jonava","magento_region_id":"476","magento_region_code":"LT-KU","magento_region_name":"Kauno Apskritis"},{"id":"384","title":"\u017demait\u0117s g. 3, Jonava","postal_code":"LT-55134","code":"1003","address":"\u017demait\u0117s g. 3, Jonava","city":"Jonava","name_for_sorting":"Jonava","magento_region_id":"476","magento_region_code":"LT-KU","magento_region_name":"Kauno Apskritis"},{"id":"452","title":"Vasario 16-osios g. 4 , Jonava","postal_code":"LT-55158","code":"1004","address":"Vasario 16-osios g. 4 , Jonava","city":"Jonava","name_for_sorting":"Jonava","magento_region_id":"476","magento_region_code":"LT-KU","magento_region_name":"Kauno Apskritis"},{"id":"482","title":"Plento g. 3, Jonava","postal_code":"LT-55195","code":"1005","address":"Plento g. 3, Jonava","city":"Jonava","name_for_sorting":"Jonava","magento_region_id":"476","magento_region_code":"LT-KU","magento_region_name":"Kauno Apskritis"},{"id":"61","title":"Upyt\u0117s g. 19, Joni\u0161kis","postal_code":"LT-84132","code":"3101","address":"Upyt\u0117s g. 19, Joni\u0161kis","city":"Joni\u0161kis","name_for_sorting":"Joni\u0161kis","magento_region_id":"480","magento_region_code":"LT-SA","magento_region_name":"\u0160iauli\u0173 Apskritis"},{"id":"431","title":"V.Kudirkos g. 87, Joni\u0161kis","postal_code":"LT-84174","code":"3102","address":"V.Kudirkos g. 87, Joni\u0161kis","city":"Joni\u0161kis","name_for_sorting":"Joni\u0161kis","magento_region_id":"480","magento_region_code":"LT-SA","magento_region_name":"\u0160iauli\u0173 Apskritis"},{"id":"58","title":"Algirdo g. 1A, Jurbarkas","postal_code":"LT-74133","code":"2801","address":"Algirdo g. 1A, Jurbarkas","city":"Jurbarkas","name_for_sorting":"Jurbarkas","magento_region_id":"481","magento_region_code":"LT-TA","magento_region_name":"Taurag\u0117s Apskritis"},{"id":"406","title":"Dariaus ir Gir\u0117no g. 25, Jurbarkas","postal_code":"LT-74127","code":"2803","address":"Dariaus ir Gir\u0117no g. 25, Jurbarkas","city":"Jurbarkas","name_for_sorting":"Jurbarkas","magento_region_id":"481","magento_region_code":"LT-TA","magento_region_name":"Taurag\u0117s Apskritis"},{"id":"80","title":"Gedimino g. 110, Kai\u0161iadorys","postal_code":"LT-56151","code":"4201","address":"Gedimino g. 110, Kai\u0161iadorys","city":"Kai\u0161iadorys","name_for_sorting":"Kai\u0161iadorys","magento_region_id":"476","magento_region_code":"LT-KU","magento_region_name":"Kauno Apskritis"},{"id":"474","title":"Gedimino g. 140, Kai\u0161iadorys","postal_code":"LT-56171","code":"4204","address":"Gedimino g. 140, Kai\u0161iadorys","city":"Kai\u0161iadorys","name_for_sorting":"Kai\u0161iadorys","magento_region_id":"476","magento_region_code":"LT-KU","magento_region_name":"Kauno Apskritis"},{"id":"575","title":"Vytauto Did\u017eiojo g.35, Kai\u0161iadorys","postal_code":"LT-56119","code":"4205","address":"Vytauto Did\u017eiojo g.35, Kai\u0161iadorys","city":"Kai\u0161iadorys","name_for_sorting":"Kai\u0161iadorys","magento_region_id":"476","magento_region_code":"LT-KU","magento_region_name":"Kauno Apskritis"},{"id":"547","title":"Varni\u0173 g.5, Kaltin\u0117nai","postal_code":"LT-75451","code":"4003","address":"Varni\u0173 g.5, Kaltin\u0117nai","city":"Kaltin\u0117nai","name_for_sorting":"Kaltin\u0117nai"},{"id":"304","title":"Laisv\u0117s g. 1, Kalvarija","postal_code":"LT-69206","code":"0605","address":"Laisv\u0117s g. 1, Kalvarija","city":"Kalvarija","name_for_sorting":"Kalvarija","magento_region_id":"478","magento_region_code":"LT-MR","magento_region_name":"Marijampol\u0117s Apskritis"},{"id":"317","title":"Vilniaus g. 52A, Karm\u0117lava, Karm\u0117lava","postal_code":"LT-54459","code":"0238","address":"Vilniaus g. 52A, Karm\u0117lava, Karm\u0117lava","city":"Karm\u0117lava","name_for_sorting":"Karm\u0117lava","magento_region_id":"476","magento_region_code":"LT-KU","magento_region_name":"Kauno Apskritis"},{"id":"519","title":"Vilniaus g. 6, Karm\u0117lava","postal_code":"LT-54448","code":"7520","address":"Vilniaus g. 6, Karm\u0117lava","city":"Karm\u0117lava","name_for_sorting":"Karm\u0117lava","magento_region_id":"476","magento_region_code":"LT-KU","magento_region_name":"Kauno Apskritis"},{"id":"14","title":"Karaliaus Mindaugo pr. 49, Kaunas","postal_code":"LT-44345","code":"0201","address":"Karaliaus Mindaugo pr. 49, Kaunas","city":"Kaunas","name_for_sorting":"Kaunas","magento_region_id":"476","magento_region_code":"LT-KU","magento_region_name":"Kauno Apskritis"},{"id":"15","title":"Savanori\u0173 pr. 255, Kaunas","postal_code":"LT-50147","code":"0202","address":"Savanori\u0173 pr. 255, Kaunas","city":"Kaunas","name_for_sorting":"Kaunas","magento_region_id":"476","magento_region_code":"LT-KU","magento_region_name":"Kauno Apskritis"},{"id":"17","title":"E\u017eero g. 3, Kaunas","postal_code":"LT-47166","code":"0204","address":"E\u017eero g. 3, Kaunas","city":"Kaunas","name_for_sorting":"Kaunas","magento_region_id":"476","magento_region_code":"LT-KU","magento_region_name":"Kauno Apskritis"},{"id":"18","title":"Islandijos pl. 32, Kaunas","postal_code":"LT-47446","code":"0205","address":"Islandijos pl. 32, Kaunas","city":"Kaunas","name_for_sorting":"Kaunas","magento_region_id":"476","magento_region_code":"LT-KU","magento_region_name":"Kauno Apskritis"},{"id":"20","title":"Pramon\u0117s pr. 29, Kaunas","postal_code":"LT-51270","code":"0207","address":"Pramon\u0117s pr. 29, Kaunas","city":"Kaunas","name_for_sorting":"Kaunas","magento_region_id":"476","magento_region_code":"LT-KU","magento_region_name":"Kauno Apskritis"},{"id":"21","title":"A. Juozapavi\u010diaus pr. 125, Kaunas","postal_code":"LT-45267","code":"0208","address":"A. Juozapavi\u010diaus pr. 125, Kaunas","city":"Kaunas","name_for_sorting":"Kaunas","magento_region_id":"476","magento_region_code":"LT-KU","magento_region_name":"Kauno Apskritis"},{"id":"74","title":"K. Petrausko g. 6, Kaunas","postal_code":"LT-44149","code":"0211","address":"K. Petrausko g. 6, Kaunas","city":"Kaunas","name_for_sorting":"Kaunas","magento_region_id":"476","magento_region_code":"LT-KU","magento_region_name":"Kauno Apskritis"},{"id":"83","title":"K. \u0160kirpos g. 17, Kaunas","postal_code":"LT-49211","code":"0212","address":"K. \u0160kirpos g. 17, Kaunas","city":"Kaunas","name_for_sorting":"Kaunas","magento_region_id":"476","magento_region_code":"LT-KU","magento_region_name":"Kauno Apskritis"},{"id":"86","title":"Raudondvario pl. 94B, Kaunas","postal_code":"LT-47180","code":"0214","address":"Raudondvario pl. 94B, Kaunas","city":"Kaunas","name_for_sorting":"Kaunas","magento_region_id":"476","magento_region_code":"LT-KU","magento_region_name":"Kauno Apskritis"},{"id":"95","title":"Jonavos g. 3, Kaunas","postal_code":"LT-44269","code":"0213","address":"Jonavos g. 3, Kaunas","city":"Kaunas","name_for_sorting":"Kaunas","magento_region_id":"476","magento_region_code":"LT-KU","magento_region_name":"Kauno Apskritis"},{"id":"97","title":"V. Kr\u0117v\u0117s pr. 97, Kaunas","postal_code":"LT-50369","code":"0215","address":"V. Kr\u0117v\u0117s pr. 97, Kaunas","city":"Kaunas","name_for_sorting":"Kaunas","magento_region_id":"476","magento_region_code":"LT-KU","magento_region_name":"Kauno Apskritis"},{"id":"98","title":"V. Kr\u0117v\u0117s pr. 14B, Kaunas","postal_code":"LT-50416","code":"0216","address":"V. Kr\u0117v\u0117s pr. 14B, Kaunas","city":"Kaunas","name_for_sorting":"Kaunas","magento_region_id":"476","magento_region_code":"LT-KU","magento_region_name":"Kauno Apskritis"},{"id":"100","title":"Jotvingi\u0173 g. 15 , Kaunas","postal_code":"LT-48124","code":"0217","address":"Jotvingi\u0173 g. 15 , Kaunas","city":"Kaunas","name_for_sorting":"Kaunas","magento_region_id":"476","magento_region_code":"LT-KU","magento_region_name":"Kauno Apskritis"},{"id":"105","title":"K. Bar\u0161ausko g. 66, Kaunas","postal_code":"LT-51436","code":"0218","address":"K. Bar\u0161ausko g. 66, Kaunas","city":"Kaunas","name_for_sorting":"Kaunas","magento_region_id":"476","magento_region_code":"LT-KU","magento_region_name":"Kauno Apskritis"},{"id":"110","title":"Balt\u0173 pr. 195, Kaunas","postal_code":"LT-47120","code":"0219","address":"Balt\u0173 pr. 195, Kaunas","city":"Kaunas","name_for_sorting":"Kaunas","magento_region_id":"476","magento_region_code":"LT-KU","magento_region_name":"Kauno Apskritis"},{"id":"115","title":"Kovo 11-osios g. 22, Kaunas","postal_code":"LT-51349","code":"0220","address":"Kovo 11-osios g. 22, Kaunas","city":"Kaunas","name_for_sorting":"Kaunas","magento_region_id":"476","magento_region_code":"LT-KU","magento_region_name":"Kauno Apskritis"},{"id":"119","title":"\u0160iaur\u0117s pr. 44, Kaunas","postal_code":"LT-49227","code":"0221","address":"\u0160iaur\u0117s pr. 44, Kaunas","city":"Kaunas","name_for_sorting":"Kaunas","magento_region_id":"476","magento_region_code":"LT-KU","magento_region_name":"Kauno Apskritis"},{"id":"121","title":"Taikos pr. 31A, Kaunas","postal_code":"LT-50229","code":"0222","address":"Taikos pr. 31A, Kaunas","city":"Kaunas","name_for_sorting":"Kaunas","magento_region_id":"476","magento_region_code":"LT-KU","magento_region_name":"Kauno Apskritis"},{"id":"122","title":"A.Juozapavi\u010diaus pr. 11, Kaunas","postal_code":"LT-45252","code":"0223","address":"A.Juozapavi\u010diaus pr. 11, Kaunas","city":"Kaunas","name_for_sorting":"Kaunas","magento_region_id":"476","magento_region_code":"LT-KU","magento_region_name":"Kauno Apskritis"},{"id":"123","title":"Savanori\u0173 pr. 315, Kaunas","postal_code":"LT-50122","code":"0224","address":"Savanori\u0173 pr. 315, Kaunas","city":"Kaunas","name_for_sorting":"Kaunas","magento_region_id":"476","magento_region_code":"LT-KU","magento_region_name":"Kauno Apskritis"},{"id":"124","title":"Vytauto pr. 32, Kaunas","postal_code":"LT-44328","code":"0225","address":"Vytauto pr. 32, Kaunas","city":"Kaunas","name_for_sorting":"Kaunas","magento_region_id":"476","magento_region_code":"LT-KU","magento_region_name":"Kauno Apskritis"},{"id":"135","title":"M. Gimbutien\u0117s g. 3, Kaunas","postal_code":"LT-52350","code":"0226","address":"M. Gimbutien\u0117s g. 3, Kaunas","city":"Kaunas","name_for_sorting":"Kaunas","magento_region_id":"476","magento_region_code":"LT-KU","magento_region_name":"Kauno Apskritis"},{"id":"289","title":"Did\u017eioji g. 98, Kaunas","postal_code":"LT-45462","code":"0227","address":"Did\u017eioji g. 98, Kaunas","city":"Kaunas","name_for_sorting":"Kaunas","magento_region_id":"476","magento_region_code":"LT-KU","magento_region_name":"Kauno Apskritis"},{"id":"290","title":"Pil\u0117n\u0173 g. 1, Akademija, Kaunas","postal_code":"LT-53347","code":"0228","address":"Pil\u0117n\u0173 g. 1, Akademija, Kaunas","city":"Kaunas","name_for_sorting":"Kaunas","magento_region_id":"476","magento_region_code":"LT-KU","magento_region_name":"Kauno Apskritis"},{"id":"291","title":"Mari\u0173 g. 2, Kaunas","postal_code":"LT-52263","code":"0229","address":"Mari\u0173 g. 2, Kaunas","city":"Kaunas","name_for_sorting":"Kaunas","magento_region_id":"476","magento_region_code":"LT-KU","magento_region_name":"Kauno Apskritis"},{"id":"292","title":"Balt\u0173 pr. 81, Kaunas","postal_code":"LT-48231","code":"0230","address":"Balt\u0173 pr. 81, Kaunas","city":"Kaunas","name_for_sorting":"Kaunas","magento_region_id":"476","magento_region_code":"LT-KU","magento_region_name":"Kauno Apskritis"},{"id":"296","title":"Vand\u017eiogalos pl. 106A, Domeikava, Kaunas","postal_code":"LT-54358","code":"0231","address":"Vand\u017eiogalos pl. 106A, Domeikava, Kaunas","city":"Kaunas","name_for_sorting":"Kaunas","magento_region_id":"476","magento_region_code":"LT-KU","magento_region_name":"Kauno Apskritis"},{"id":"297","title":"Varni\u0173 g. 41, Kaunas","postal_code":"LT-48414","code":"0232","address":"Varni\u0173 g. 41, Kaunas","city":"Kaunas","name_for_sorting":"Kaunas","magento_region_id":"476","magento_region_code":"LT-KU","magento_region_name":"Kauno Apskritis"},{"id":"298","title":"Savanori\u0173 pr. 346, Kaunas","postal_code":"LT-49428","code":"0233","address":"Savanori\u0173 pr. 346, Kaunas","city":"Kaunas","name_for_sorting":"Kaunas","magento_region_id":"476","magento_region_code":"LT-KU","magento_region_name":"Kauno Apskritis"},{"id":"299","title":"Veiveri\u0173 g. 146, Kaunas","postal_code":"LT-46354","code":"0234","address":"Veiveri\u0173 g. 146, Kaunas","city":"Kaunas","name_for_sorting":"Kaunas","magento_region_id":"476","magento_region_code":"LT-KU","magento_region_name":"Kauno Apskritis"},{"id":"301","title":"Lubin\u0173 g. 155, Kaunas","postal_code":"LT-47222","code":"0235","address":"Lubin\u0173 g. 155, Kaunas","city":"Kaunas","name_for_sorting":"Kaunas","magento_region_id":"476","magento_region_code":"LT-KU","magento_region_name":"Kauno Apskritis"},{"id":"302","title":"Pa\u0161il\u0117s g. 108 , Kaunas","postal_code":"LT-51313","code":"0236","address":"Pa\u0161il\u0117s g. 108 , Kaunas","city":"Kaunas","name_for_sorting":"Kaunas","magento_region_id":"476","magento_region_code":"LT-KU","magento_region_name":"Kauno Apskritis"},{"id":"303","title":"Kalnie\u010di\u0173 g. 172 , Kaunas","postal_code":"LT-50138","code":"0237","address":"Kalnie\u010di\u0173 g. 172 , Kaunas","city":"Kaunas","name_for_sorting":"Kaunas","magento_region_id":"476","magento_region_code":"LT-KU","magento_region_name":"Kauno Apskritis"},{"id":"319","title":"Europos pr. 43, Kaunas","postal_code":"LT-46329","code":"0240","address":"Europos pr. 43, Kaunas","city":"Kaunas","name_for_sorting":"Kaunas","magento_region_id":"476","magento_region_code":"LT-KU","magento_region_name":"Kauno Apskritis"},{"id":"353","title":"Pranc\u016bz\u0173 g. 81, Kaunas","postal_code":"LT-44426","code":"0241","address":"Pranc\u016bz\u0173 g. 81, Kaunas","city":"Kaunas","name_for_sorting":"Kaunas","magento_region_id":"476","magento_region_code":"LT-KU","magento_region_name":"Kauno Apskritis"},{"id":"354","title":"Pramon\u0117s pr. 16, Kaunas","postal_code":"LT-51271","code":"0242","address":"Pramon\u0117s pr. 16, Kaunas","city":"Kaunas","name_for_sorting":"Kaunas","magento_region_id":"476","magento_region_code":"LT-KU","magento_region_name":"Kauno Apskritis"},{"id":"370","title":"\u0160iaur\u0117s pr. 1A, Kaunas","postal_code":"LT-49188","code":"0245","address":"\u0160iaur\u0117s pr. 1A, Kaunas","city":"Kaunas","name_for_sorting":"Kaunas","magento_region_id":"476","magento_region_code":"LT-KU","magento_region_name":"Kauno Apskritis"},{"id":"371","title":"Jonavos g. 40, Kaunas","postal_code":"LT-44263","code":"0244","address":"Jonavos g. 40, Kaunas","city":"Kaunas","name_for_sorting":"Kaunas","magento_region_id":"476","magento_region_code":"LT-KU","magento_region_name":"Kauno Apskritis"},{"id":"389","title":"Balt\u0173 pr. 10, Kaunas","postal_code":"LT-48165","code":"0247","address":"Balt\u0173 pr. 10, Kaunas","city":"Kaunas","name_for_sorting":"Kaunas","magento_region_id":"476","magento_region_code":"LT-KU","magento_region_name":"Kauno Apskritis"},{"id":"411","title":"V. Kr\u0117v\u0117s pr.  43, Kaunas","postal_code":"LT-49440","code":"0248","address":"V. Kr\u0117v\u0117s pr.  43, Kaunas","city":"Kaunas","name_for_sorting":"Kaunas","magento_region_id":"476","magento_region_code":"LT-KU","magento_region_name":"Kauno Apskritis"},{"id":"412","title":"Student\u0173 g. 19, Kaunas","postal_code":"LT-50240","code":"0249","address":"Student\u0173 g. 19, Kaunas","city":"Kaunas","name_for_sorting":"Kaunas","magento_region_id":"476","magento_region_code":"LT-KU","magento_region_name":"Kauno Apskritis"},{"id":"415","title":"Rok\u0173 g. 17, Kaunas","postal_code":"LT-46114","code":"0250","address":"Rok\u0173 g. 17, Kaunas","city":"Kaunas","name_for_sorting":"Kaunas","magento_region_id":"476","magento_region_code":"LT-KU","magento_region_name":"Kauno Apskritis"},{"id":"417","title":"Var\u017eupio g. 1, Kaunas","postal_code":"LT-53349","code":"0251","address":"Var\u017eupio g. 1, Kaunas","city":"Kaunas","name_for_sorting":"Kaunas","magento_region_id":"476","magento_region_code":"LT-KU","magento_region_name":"Kauno Apskritis"},{"id":"429","title":"Kleboni\u0161kio g. 27 B, Kaunas","postal_code":"LT-44104","code":"0253","address":"Kleboni\u0161kio g. 27 B, Kaunas","city":"Kaunas","name_for_sorting":"Kaunas","magento_region_id":"476","magento_region_code":"LT-KU","magento_region_name":"Kauno Apskritis"},{"id":"435","title":"A. \u0160apokos g. 38, Kaunas","postal_code":"LT-47250","code":"0254","address":"A. \u0160apokos g. 38, Kaunas","city":"Kaunas","name_for_sorting":"Kaunas","magento_region_id":"476","magento_region_code":"LT-KU","magento_region_name":"Kauno Apskritis"},{"id":"453","title":"Baltijos g. 58, Kaunas","postal_code":"LT-48221","code":"0256","address":"Baltijos g. 58, Kaunas","city":"Kaunas","name_for_sorting":"Kaunas","magento_region_id":"476","magento_region_code":"LT-KU","magento_region_name":"Kauno Apskritis"},{"id":"481","title":"Veiveri\u0173 g. 150B, Kaunas","postal_code":"LT-46391","code":"0257","address":"Veiveri\u0173 g. 150B, Kaunas","city":"Kaunas","name_for_sorting":"Kaunas","magento_region_id":"476","magento_region_code":"LT-KU","magento_region_name":"Kauno Apskritis"},{"id":"495","title":"B.Brazd\u017eionio g. 23B, Kaunas","postal_code":"LT-48184","code":"0259","address":"B.Brazd\u017eionio g. 23B, Kaunas","city":"Kaunas","name_for_sorting":"Kaunas","magento_region_id":"476","magento_region_code":"LT-KU","magento_region_name":"Kauno Apskritis"},{"id":"497","title":"Keramik\u0173 g. 7, Kaunas","postal_code":"LT-54488","code":"0260","address":"Keramik\u0173 g. 7, Kaunas","city":"Kaunas","name_for_sorting":"Kaunas","magento_region_id":"476","magento_region_code":"LT-KU","magento_region_name":"Kauno Apskritis"},{"id":"506","title":"Savanori\u0173 pr. 321, Kaunas","postal_code":"LT-50120","code":"7507","address":"Savanori\u0173 pr. 321, Kaunas","city":"Kaunas","name_for_sorting":"Kaunas","magento_region_id":"476","magento_region_code":"LT-KU","magento_region_name":"Kauno Apskritis"},{"id":"507","title":"Draugyst\u0117s g. 6A, Kaunas","postal_code":"LT-51286","code":"7508","address":"Draugyst\u0117s g. 6A, Kaunas","city":"Kaunas","name_for_sorting":"Kaunas","magento_region_id":"476","magento_region_code":"LT-KU","magento_region_name":"Kauno Apskritis"},{"id":"508","title":"Luk\u0161io g. 70, Kaunas","postal_code":"LT-49411","code":"7509","address":"Luk\u0161io g. 70, Kaunas","city":"Kaunas","name_for_sorting":"Kaunas","magento_region_id":"476","magento_region_code":"LT-KU","magento_region_name":"Kauno Apskritis"},{"id":"510","title":"Veiveri\u0173 g. 148, Kaunas","postal_code":"LT-46354","code":"7511","address":"Veiveri\u0173 g. 148, Kaunas","city":"Kaunas","name_for_sorting":"Kaunas","magento_region_id":"476","magento_region_code":"LT-KU","magento_region_name":"Kauno Apskritis"},{"id":"518","title":"Juozapavi\u010diaus pr. 33, Kaunas","postal_code":"LT-45257","code":"7519","address":"Juozapavi\u010diaus pr. 33, Kaunas","city":"Kaunas","name_for_sorting":"Kaunas","magento_region_id":"476","magento_region_code":"LT-KU","magento_region_name":"Kauno Apskritis"},{"id":"521","title":"Mildos g. 5, Domeikavos k., Kaunas","postal_code":"LT-54358","code":"7522","address":"Mildos g. 5, Domeikavos k., Kaunas","city":"Kaunas","name_for_sorting":"Kaunas","magento_region_id":"476","magento_region_code":"LT-KU","magento_region_name":"Kauno Apskritis"},{"id":"526","title":"Raudondvario pl. 205, Kaunas","postal_code":"LT-47153","code":"7527","address":"Raudondvario pl. 205, Kaunas","city":"Kaunas","name_for_sorting":"Kaunas","magento_region_id":"476","magento_region_code":"LT-KU","magento_region_name":"Kauno Apskritis"},{"id":"533","title":"Kur\u0161i\u0173 g. 13A, Kaunas","postal_code":"LT-48109","code":"7535","address":"Kur\u0161i\u0173 g. 13A, Kaunas","city":"Kaunas","name_for_sorting":"Kaunas","magento_region_id":"476","magento_region_code":"LT-KU","magento_region_name":"Kauno Apskritis"},{"id":"537","title":"Vand\u017eiogalos pl. 22, Kaunas","postal_code":"LT-47457","code":"7539","address":"Vand\u017eiogalos pl. 22, Kaunas","city":"Kaunas","name_for_sorting":"Kaunas","magento_region_id":"476","magento_region_code":"LT-KU","magento_region_name":"Kauno Apskritis"},{"id":"549","title":"\u017demai\u010di\u0173 pl.23, Kaunas","postal_code":"LT-48244","code":"0261","address":"\u017demai\u010di\u0173 pl.23, Kaunas","city":"Kaunas","name_for_sorting":"Kaunas","magento_region_id":"476","magento_region_code":"LT-KU","magento_region_name":"Kauno Apskritis"},{"id":"561","title":"Lubin\u0173 g. 155, Kaunas","postal_code":"LT-47222","code":"7548","address":"Lubin\u0173 g. 155, Kaunas","city":"Kaunas","name_for_sorting":"Kaunas","magento_region_id":"476","magento_region_code":"LT-KU","magento_region_name":"Kauno Apskritis"},{"id":"569","title":"V. Kr\u0117v\u0117s pr. 106 C, Kaunas","postal_code":"LT-50381","code":"7557","address":"V. Kr\u0117v\u0117s pr. 106 C, Kaunas","city":"Kaunas","name_for_sorting":"Kaunas","magento_region_id":"476","magento_region_code":"LT-KU","magento_region_name":"Kauno Apskritis"},{"id":"571","title":"Baltijos g. 58, Kaunas","postal_code":"LT-48221","code":"7559","address":"Baltijos g. 58, Kaunas","city":"Kaunas","name_for_sorting":"Kaunas","magento_region_id":"476","magento_region_code":"LT-KU","magento_region_name":"Kauno Apskritis"},{"id":"572","title":"V. Kr\u0117v\u0117s pr. 43, Kaunas","postal_code":"LT-49440","code":"7560","address":"V. Kr\u0117v\u0117s pr. 43, Kaunas","city":"Kaunas","name_for_sorting":"Kaunas","magento_region_id":"476","magento_region_code":"LT-KU","magento_region_name":"Kauno Apskritis"},{"id":"579","title":"Vaidoto g.159, Kaunas","postal_code":"LT-45392","code":"0262","address":"Vaidoto g.159, Kaunas","city":"Kaunas","name_for_sorting":"Kaunas","magento_region_id":"476","magento_region_code":"LT-KU","magento_region_name":"Kauno Apskritis"},{"id":"326","title":"J. Basanavi\u010diaus 6A, Kazl\u0173 R\u016bda","postal_code":"LT-69415","code":"0606","address":"J. Basanavi\u010diaus 6A, Kazl\u0173 R\u016bda","city":"Kazl\u0173 R\u016bda","name_for_sorting":"Kazl\u0173 R\u016bda","magento_region_id":"478","magento_region_code":"LT-MR","magento_region_name":"Marijampol\u0117s Apskritis"},{"id":"479","title":"M.Valan\u010diaus g. 7, Kazl\u0173 R\u016bda","postal_code":"LT-69443","code":"0609","address":"M.Valan\u010diaus g. 7, Kazl\u0173 R\u016bda","city":"Kazl\u0173 R\u016bda","name_for_sorting":"Kazl\u0173 R\u016bda","magento_region_id":"478","magento_region_code":"LT-MR","magento_region_name":"Marijampol\u0117s Apskritis"},{"id":"42","title":"J. Basanavi\u010diaus g. 53, K\u0117dainiai","postal_code":"LT-57283","code":"1201","address":"J. Basanavi\u010diaus g. 53, K\u0117dainiai","city":"K\u0117dainiai","name_for_sorting":"K\u0117dainiai","magento_region_id":"476","magento_region_code":"LT-KU","magento_region_name":"Kauno Apskritis"},{"id":"331","title":"Gegu\u010di\u0173 g. 13, K\u0117dainiai","postal_code":"LT-57461","code":"1202","address":"Gegu\u010di\u0173 g. 13, K\u0117dainiai","city":"K\u0117dainiai","name_for_sorting":"K\u0117dainiai","magento_region_id":"476","magento_region_code":"LT-KU","magento_region_name":"Kauno Apskritis"},{"id":"402","title":"J.Basanavi\u010diaus g. 87B, K\u0117dainiai","postal_code":"LT-57357","code":"1203","address":"J.Basanavi\u010diaus g. 87B, K\u0117dainiai","city":"K\u0117dainiai","name_for_sorting":"K\u0117dainiai","magento_region_id":"476","magento_region_code":"LT-KU","magento_region_name":"Kauno Apskritis"},{"id":"489","title":"P. Luk\u0161io g. 1A, K\u0117dainiai","postal_code":"LT-57198","code":"1204","address":"P. Luk\u0161io g. 1A, K\u0117dainiai","city":"K\u0117dainiai","name_for_sorting":"K\u0117dainiai","magento_region_id":"476","magento_region_code":"LT-KU","magento_region_name":"Kauno Apskritis"},{"id":"59","title":"S. \u0160ilingo g. 5, Kelm\u0117","postal_code":"LT-86144","code":"2901","address":"S. \u0160ilingo g. 5, Kelm\u0117","city":"Kelm\u0117","name_for_sorting":"Kelm\u0117","magento_region_id":"480","magento_region_code":"LT-SA","magento_region_name":"\u0160iauli\u0173 Apskritis"},{"id":"461","title":"K\u0119stu\u010dio g. 1D, Kelm\u0117","postal_code":"LT-86139","code":"2902","address":"K\u0119stu\u010dio g. 1D, Kelm\u0117","city":"Kelm\u0117","name_for_sorting":"Kelm\u0117","magento_region_id":"480","magento_region_code":"LT-SA","magento_region_name":"\u0160iauli\u0173 Apskritis"},{"id":"24","title":"Taikos pr. 61, Klaip\u0117da","postal_code":"LT-91182","code":"0301","address":"Taikos pr. 61, Klaip\u0117da","city":"Klaip\u0117da","name_for_sorting":"Klaip\u0117da","magento_region_id":"477","magento_region_code":"LT-KL","magento_region_name":"Klaip\u0117dos Apskritis"},{"id":"25","title":"H.Manto g.90-1, Klaip\u0117da","postal_code":"LT-92295","code":"0302","address":"H.Manto g.90-1, Klaip\u0117da","city":"Klaip\u0117da","name_for_sorting":"Klaip\u0117da","magento_region_id":"477","magento_region_code":"LT-KL","magento_region_name":"Klaip\u0117dos Apskritis"},{"id":"26","title":"\u0160ilut\u0117s pl. 35, Klaip\u0117da","postal_code":"LT-94105","code":"0303","address":"\u0160ilut\u0117s pl. 35, Klaip\u0117da","city":"Klaip\u0117da","name_for_sorting":"Klaip\u0117da","magento_region_id":"477","magento_region_code":"LT-KL","magento_region_name":"Klaip\u0117dos Apskritis"},{"id":"27","title":"Taikos pr. 141, Klaip\u0117da","postal_code":"LT-94284","code":"0304","address":"Taikos pr. 141, Klaip\u0117da","city":"Klaip\u0117da","name_for_sorting":"Klaip\u0117da","magento_region_id":"477","magento_region_code":"LT-KL","magento_region_name":"Klaip\u0117dos Apskritis"},{"id":"28","title":"Sausio 15-osios g. 1A \/ 2A, Klaip\u0117da","postal_code":"LT-91234","code":"0305","address":"Sausio 15-osios g. 1A \/ 2A, Klaip\u0117da","city":"Klaip\u0117da","name_for_sorting":"Klaip\u0117da","magento_region_id":"477","magento_region_code":"LT-KL","magento_region_name":"Klaip\u0117dos Apskritis"},{"id":"75","title":"H. Manto g. 11, Klaip\u0117da","postal_code":"LT-92130","code":"0307","address":"H. Manto g. 11, Klaip\u0117da","city":"Klaip\u0117da","name_for_sorting":"Klaip\u0117da","magento_region_id":"477","magento_region_code":"LT-KL","magento_region_name":"Klaip\u0117dos Apskritis"},{"id":"92","title":"Taikos pr. 115, Klaip\u0117da","postal_code":"LT-94231","code":"0308","address":"Taikos pr. 115, Klaip\u0117da","city":"Klaip\u0117da","name_for_sorting":"Klaip\u0117da","magento_region_id":"477","magento_region_code":"LT-KL","magento_region_name":"Klaip\u0117dos Apskritis"},{"id":"101","title":"Liepojos g. 238, Klaip\u0117da","postal_code":"LT-92330","code":"0309","address":"Liepojos g. 238, Klaip\u0117da","city":"Klaip\u0117da","name_for_sorting":"Klaip\u0117da","magento_region_id":"477","magento_region_code":"LT-KL","magento_region_name":"Klaip\u0117dos Apskritis"},{"id":"114","title":"Smiltel\u0117s g. 19, Klaip\u0117da","postal_code":"LT-95186","code":"0311","address":"Smiltel\u0117s g. 19, Klaip\u0117da","city":"Klaip\u0117da","name_for_sorting":"Klaip\u0117da","magento_region_id":"477","magento_region_code":"LT-KL","magento_region_name":"Klaip\u0117dos Apskritis"},{"id":"127","title":"Mogiliovo g. 12, Klaip\u0117da","postal_code":"LT-95221","code":"0312","address":"Mogiliovo g. 12, Klaip\u0117da","city":"Klaip\u0117da","name_for_sorting":"Klaip\u0117da","magento_region_id":"477","magento_region_code":"LT-KL","magento_region_name":"Klaip\u0117dos Apskritis"},{"id":"320","title":"Liep\u0173 g. 81, Klaip\u0117da","postal_code":"LT-92195","code":"0313","address":"Liep\u0173 g. 81, Klaip\u0117da","city":"Klaip\u0117da","name_for_sorting":"Klaip\u0117da","magento_region_id":"477","magento_region_code":"LT-KL","magento_region_name":"Klaip\u0117dos Apskritis"},{"id":"321","title":"Dangaus g. 34, Slengiai, Klaip\u0117da","postal_code":"LT-92343","code":"0314","address":"Dangaus g. 34, Slengiai, Klaip\u0117da","city":"Klaip\u0117da","name_for_sorting":"Klaip\u0117da","magento_region_id":"477","magento_region_code":"LT-KL","magento_region_name":"Klaip\u0117dos Apskritis"},{"id":"322","title":"Nidos g. 1, Dercekliai, Klaip\u0117da","postal_code":"LT-96383","code":"0316","address":"Nidos g. 1, Dercekliai, Klaip\u0117da","city":"Klaip\u0117da","name_for_sorting":"Klaip\u0117da","magento_region_id":"477","magento_region_code":"LT-KL","magento_region_name":"Klaip\u0117dos Apskritis"},{"id":"323","title":"Taikos pr.39, Klaip\u0117da","postal_code":"LT-91150","code":"0317","address":"Taikos pr.39, Klaip\u0117da","city":"Klaip\u0117da","name_for_sorting":"Klaip\u0117da","magento_region_id":"477","magento_region_code":"LT-KL","magento_region_name":"Klaip\u0117dos Apskritis"},{"id":"372","title":"Til\u017e\u0117s g. 56B, Klaip\u0117da","postal_code":"LT-91110","code":"0319","address":"Til\u017e\u0117s g. 56B, Klaip\u0117da","city":"Klaip\u0117da","name_for_sorting":"Klaip\u0117da","magento_region_id":"477","magento_region_code":"LT-KL","magento_region_name":"Klaip\u0117dos Apskritis"},{"id":"373","title":"Taikos pr. 66B, Klaip\u0117da","postal_code":"LT-93219","code":"0318","address":"Taikos pr. 66B, Klaip\u0117da","city":"Klaip\u0117da","name_for_sorting":"Klaip\u0117da","magento_region_id":"477","magento_region_code":"LT-KL","magento_region_name":"Klaip\u0117dos Apskritis"},{"id":"391","title":"H. Manto g. 36, Klaip\u0117da","postal_code":"LT-92233","code":"0320","address":"H. Manto g. 36, Klaip\u0117da","city":"Klaip\u0117da","name_for_sorting":"Klaip\u0117da","magento_region_id":"477","magento_region_code":"LT-KL","magento_region_name":"Klaip\u0117dos Apskritis"},{"id":"392","title":"Nidos g. 5, Klaip\u0117da","postal_code":"LT-93216","code":"0321","address":"Nidos g. 5, Klaip\u0117da","city":"Klaip\u0117da","name_for_sorting":"Klaip\u0117da","magento_region_id":"477","magento_region_code":"LT-KL","magento_region_name":"Klaip\u0117dos Apskritis"},{"id":"401","title":"Priesto\u010dio g. 24, Klaip\u0117da","postal_code":"LT-92228","code":"0322","address":"Priesto\u010dio g. 24, Klaip\u0117da","city":"Klaip\u0117da","name_for_sorting":"Klaip\u0117da","magento_region_id":"477","magento_region_code":"LT-KL","magento_region_name":"Klaip\u0117dos Apskritis"},{"id":"454","title":"\u017daliakelio g. 1, Klaip\u0117da","postal_code":"LT-92398","code":"0323","address":"\u017daliakelio g. 1, Klaip\u0117da","city":"Klaip\u0117da","name_for_sorting":"Klaip\u0117da","magento_region_id":"477","magento_region_code":"LT-KL","magento_region_name":"Klaip\u0117dos Apskritis"},{"id":"492","title":"Taikos pr. 8A, Klaip\u0117da","postal_code":"LT-91229","code":"0324","address":"Taikos pr. 8A, Klaip\u0117da","city":"Klaip\u0117da","name_for_sorting":"Klaip\u0117da","magento_region_id":"477","magento_region_code":"LT-KL","magento_region_name":"Klaip\u0117dos Apskritis"},{"id":"527","title":"\u0160ilut\u0117s pl. 83A, Klaip\u0117da","postal_code":"LT-94101","code":"7528","address":"\u0160ilut\u0117s pl. 83A, Klaip\u0117da","city":"Klaip\u0117da","name_for_sorting":"Klaip\u0117da","magento_region_id":"477","magento_region_code":"LT-KL","magento_region_name":"Klaip\u0117dos Apskritis"},{"id":"530","title":"Taikos pr. 100, Klaip\u0117da","postal_code":"LT-93155","code":"7532","address":"Taikos pr. 100, Klaip\u0117da","city":"Klaip\u0117da","name_for_sorting":"Klaip\u0117da","magento_region_id":"477","magento_region_code":"LT-KL","magento_region_name":"Klaip\u0117dos Apskritis"},{"id":"531","title":"Taikos pr. 81A, Klaip\u0117da","postal_code":"LT-94114","code":"7533","address":"Taikos pr. 81A, Klaip\u0117da","city":"Klaip\u0117da","name_for_sorting":"Klaip\u0117da","magento_region_id":"477","magento_region_code":"LT-KL","magento_region_name":"Klaip\u0117dos Apskritis"},{"id":"534","title":"Plieno g. 1, Klaip\u0117da","postal_code":"LT-95112","code":"7536","address":"Plieno g. 1, Klaip\u0117da","city":"Klaip\u0117da","name_for_sorting":"Klaip\u0117da","magento_region_id":"477","magento_region_code":"LT-KL","magento_region_name":"Klaip\u0117dos Apskritis"},{"id":"558","title":"Taikos pr. 56, Klaip\u0117da, Klaip\u0117da","postal_code":"LT-91183","code":"7544","address":"Taikos pr. 56, Klaip\u0117da, Klaip\u0117da","city":"Klaip\u0117da","name_for_sorting":"Klaip\u0117da","magento_region_id":"477","magento_region_code":"LT-KL","magento_region_name":"Klaip\u0117dos Apskritis"},{"id":"565","title":"\u017dardinink\u0173 g. 27A, Klaip\u0117da","postal_code":"LT-94231","code":"7553","address":"\u017dardinink\u0173 g. 27A, Klaip\u0117da","city":"Klaip\u0117da","name_for_sorting":"Klaip\u0117da","magento_region_id":"477","magento_region_code":"LT-KL","magento_region_name":"Klaip\u0117dos Apskritis"},{"id":"567","title":"Butk\u0173 Juz\u0117s g. 11, Klaip\u0117da","postal_code":"LT-92228","code":"7555","address":"Butk\u0173 Juz\u0117s g. 11, Klaip\u0117da","city":"Klaip\u0117da","name_for_sorting":"Klaip\u0117da","magento_region_id":"477","magento_region_code":"LT-KL","magento_region_name":"Klaip\u0117dos Apskritis"},{"id":"48","title":"\u017demait\u0117s al. 29, Kretinga","postal_code":"LT-97106","code":"1801","address":"\u017demait\u0117s al. 29, Kretinga","city":"Kretinga","name_for_sorting":"Kretinga","magento_region_id":"477","magento_region_code":"LT-KL","magento_region_name":"Klaip\u0117dos Apskritis"},{"id":"426","title":"\u0160ventosios g. 27B, Kretinga","postal_code":"LT-97124","code":"1804","address":"\u0160ventosios g. 27B, Kretinga","city":"Kretinga","name_for_sorting":"Kretinga","magento_region_id":"477","magento_region_code":"LT-KL","magento_region_name":"Klaip\u0117dos Apskritis"},{"id":"574","title":"Minijos g.1, Kretinga","postal_code":"LT-97135","code":"1806","address":"Minijos g.1, Kretinga","city":"Kretinga","name_for_sorting":"Kretinga","magento_region_id":"477","magento_region_code":"LT-KL","magento_region_name":"Klaip\u0117dos Apskritis"},{"id":"91","title":"Pergal\u0117s g. 8, Kupi\u0161kis","postal_code":"LT-40108","code":"4801","address":"Pergal\u0117s g. 8, Kupi\u0161kis","city":"Kupi\u0161kis","name_for_sorting":"Kupi\u0161kis","magento_region_id":"479","magento_region_code":"LT-PN","magento_region_name":"Panev\u0117\u017eio Apskritis"},{"id":"472","title":"Vytauto g. 41, Kupi\u0161kis","postal_code":"LT-40115","code":"4802","address":"Vytauto g. 41, Kupi\u0161kis","city":"Kupi\u0161kis","name_for_sorting":"Kupi\u0161kis","magento_region_id":"479","magento_region_code":"LT-PN","magento_region_name":"Panev\u0117\u017eio Apskritis"},{"id":"93","title":"Vilniaus g. 2, Kur\u0161\u0117nai","postal_code":"LT-81156","code":"4701","address":"Vilniaus g. 2, Kur\u0161\u0117nai","city":"Kur\u0161\u0117nai","name_for_sorting":"Kur\u0161\u0117nai","magento_region_id":"480","magento_region_code":"LT-SA","magento_region_name":"\u0160iauli\u0173 Apskritis"},{"id":"551","title":"Vytauto g. 78, Kur\u0161\u0117nai","postal_code":"LT-81146","code":"4702","address":"Vytauto g. 78, Kur\u0161\u0117nai","city":"Kur\u0161\u0117nai","name_for_sorting":"Kur\u0161\u0117nai","magento_region_id":"480","magento_region_code":"LT-SA","magento_region_name":"\u0160iauli\u0173 Apskritis"},{"id":"332","title":"Vi\u0161ty\u010dio g. 40, Kybartai","postal_code":"LT-70428","code":"1402","address":"Vi\u0161ty\u010dio g. 40, Kybartai","city":"Kybartai","name_for_sorting":"Kybartai","magento_region_id":"478","magento_region_code":"LT-MR","magento_region_name":"Marijampol\u0117s Apskritis"},{"id":"23","title":"A. Merkio g. 1, Lap\u0117s","postal_code":"LT-54434","code":"0210","address":"A. Merkio g. 1, Lap\u0117s","city":"Lap\u0117s","name_for_sorting":"Lap\u0117s","magento_region_id":"476","magento_region_code":"LT-KU","magento_region_name":"Kauno Apskritis"},{"id":"69","title":"Sein\u0173 g. 1, Lazdijai","postal_code":"LT-67113","code":"3901","address":"Sein\u0173 g. 1, Lazdijai","city":"Lazdijai","name_for_sorting":"Lazdijai","magento_region_id":"475","magento_region_code":"LT-AL","magento_region_name":"Alytaus Apskritis"},{"id":"361","title":"Dz\u016bk\u0173 g. 3, Lazdijai","postal_code":"LT-67125","code":"3902","address":"Dz\u016bk\u0173 g. 3, Lazdijai","city":"Lazdijai","name_for_sorting":"Lazdijai","magento_region_id":"475","magento_region_code":"LT-AL","magento_region_name":"Alytaus Apskritis"},{"id":"346","title":"Gele\u017einkelio g. 38-1, Lentvaris","postal_code":"LT-25116","code":"5102","address":"Gele\u017einkelio g. 38-1, Lentvaris","city":"Lentvaris","name_for_sorting":"Lentvaris","magento_region_id":"484","magento_region_code":"LT-VL","magento_region_name":"Vilniaus Apskritis"},{"id":"347","title":"Klev\u0173 al. 4, Lentvaris","postal_code":"LT-25109","code":"5103","address":"Klev\u0173 al. 4, Lentvaris","city":"Lentvaris","name_for_sorting":"Lentvaris","magento_region_id":"484","magento_region_code":"LT-VL","magento_region_name":"Vilniaus Apskritis"},{"id":"559","title":"Klev\u0173 al. 4, Lentvaris","postal_code":"LT-25109","code":"7546","address":"Klev\u0173 al. 4, Lentvaris","city":"Lentvaris","name_for_sorting":"Lentvaris","magento_region_id":"484","magento_region_code":"LT-VL","magento_region_name":"Vilniaus Apskritis"},{"id":"485","title":"Vienyb\u0117s a. 7, Linkuva","postal_code":"LT-83443","code":"3702","address":"Vienyb\u0117s a. 7, Linkuva","city":"Linkuva","name_for_sorting":"Linkuva","magento_region_id":"480","magento_region_code":"LT-SA","magento_region_name":"\u0160iauli\u0173 Apskritis"},{"id":"578","title":"Mokyklos g.3, Mai\u0161iagala","postal_code":"LT-14242","code":"0004","address":"Mokyklos g.3, Mai\u0161iagala","city":"Mai\u0161iagala","name_for_sorting":"Mai\u0161iagala"},{"id":"35","title":"V. Kudirkos g. 3, Marijampol\u0117","postal_code":"LT-68176","code":"0601","address":"V. Kudirkos g. 3, Marijampol\u0117","city":"Marijampol\u0117","name_for_sorting":"Marijampol\u0117","magento_region_id":"478","magento_region_code":"LT-MR","magento_region_name":"Marijampol\u0117s Apskritis"},{"id":"76","title":"Sporto g. 16, Marijampol\u0117","postal_code":"LT-68236","code":"0603","address":"Sporto g. 16, Marijampol\u0117","city":"Marijampol\u0117","name_for_sorting":"Marijampol\u0117","magento_region_id":"478","magento_region_code":"LT-MR","magento_region_name":"Marijampol\u0117s Apskritis"},{"id":"116","title":"Ba\u017eny\u010dios g. 38, Marijampol\u0117","postal_code":"LT-68309","code":"0604","address":"Ba\u017eny\u010dios g. 38, Marijampol\u0117","city":"Marijampol\u0117","name_for_sorting":"Marijampol\u0117","magento_region_id":"478","magento_region_code":"LT-MR","magento_region_name":"Marijampol\u0117s Apskritis"},{"id":"385","title":"Palangos g. 22, Marijampol\u0117","postal_code":"LT-68188","code":"0607","address":"Palangos g. 22, Marijampol\u0117","city":"Marijampol\u0117","name_for_sorting":"Marijampol\u0117","magento_region_id":"478","magento_region_code":"LT-MR","magento_region_name":"Marijampol\u0117s Apskritis"},{"id":"386","title":"\u017demait\u0117s g. 22, Marijampol\u0117","postal_code":"LT-68264","code":"0608","address":"\u017demait\u0117s g. 22, Marijampol\u0117","city":"Marijampol\u0117","name_for_sorting":"Marijampol\u0117","magento_region_id":"478","magento_region_code":"LT-MR","magento_region_name":"Marijampol\u0117s Apskritis"},{"id":"528","title":"Dariaus ir Gir\u0117no g. 15, Marijampol\u0117","postal_code":"LT-68260","code":"7529","address":"Dariaus ir Gir\u0117no g. 15, Marijampol\u0117","city":"Marijampol\u0117","name_for_sorting":"Marijampol\u0117","magento_region_id":"478","magento_region_code":"LT-MR","magento_region_name":"Marijampol\u0117s Apskritis"},{"id":"564","title":"Mokol\u0173 g. 23, Marijampol\u0117","postal_code":"LT-68173","code":"7552","address":"Mokol\u0173 g. 23, Marijampol\u0117","city":"Marijampol\u0117","name_for_sorting":"Marijampol\u0117","magento_region_id":"478","magento_region_code":"LT-MR","magento_region_name":"Marijampol\u0117s Apskritis"},{"id":"345","title":"Mokslo g. 11, Mastai\u010diai","postal_code":"LT-53312","code":"5002","address":"Mokslo g. 11, Mastai\u010diai","city":"Mastai\u010diai","name_for_sorting":"Mastai\u010diai","magento_region_id":"476","magento_region_code":"LT-KU","magento_region_name":"Kauno Apskritis"},{"id":"39","title":"Laisv\u0117s g. 56, Ma\u017eeikiai","postal_code":"LT-89223","code":"0901","address":"Laisv\u0117s g. 56, Ma\u017eeikiai","city":"Ma\u017eeikiai","name_for_sorting":"Ma\u017eeikiai","magento_region_id":"482","magento_region_code":"LT-TE","magento_region_name":"Tel\u0161i\u0173 Apskritis"},{"id":"78","title":"Dauk\u0161os g. 24A, Ma\u017eeikiai","postal_code":"LT-89234","code":"0902","address":"Dauk\u0161os g. 24A, Ma\u017eeikiai","city":"Ma\u017eeikiai","name_for_sorting":"Ma\u017eeikiai","magento_region_id":"482","magento_region_code":"LT-TE","magento_region_name":"Tel\u0161i\u0173 Apskritis"},{"id":"328","title":"Ventos g. 10B, Ma\u017eeikiai","postal_code":"LT-89171","code":"0903","address":"Ventos g. 10B, Ma\u017eeikiai","city":"Ma\u017eeikiai","name_for_sorting":"Ma\u017eeikiai","magento_region_id":"482","magento_region_code":"LT-TE","magento_region_name":"Tel\u0161i\u0173 Apskritis"},{"id":"444","title":"Sedos g. 53, Ma\u017eeikiai","postal_code":"LT-89191","code":"0904","address":"Sedos g. 53, Ma\u017eeikiai","city":"Ma\u017eeikiai","name_for_sorting":"Ma\u017eeikiai","magento_region_id":"482","magento_region_code":"LT-TE","magento_region_name":"Tel\u0161i\u0173 Apskritis"},{"id":"465","title":"Ma\u017eeiki\u0173 100-me\u010dio g. 2, Ma\u017eeikiai","postal_code":"LT-89229","code":"0906","address":"Ma\u017eeiki\u0173 100-me\u010dio g. 2, Ma\u017eeikiai","city":"Ma\u017eeikiai","name_for_sorting":"Ma\u017eeikiai","magento_region_id":"482","magento_region_code":"LT-TE","magento_region_name":"Tel\u0161i\u0173 Apskritis"},{"id":"511","title":"Tirk\u0161li\u0173 g. 5E, Ma\u017eeikiai","postal_code":"LT-89234","code":"7512","address":"Tirk\u0161li\u0173 g. 5E, Ma\u017eeikiai","city":"Ma\u017eeikiai","name_for_sorting":"Ma\u017eeikiai","magento_region_id":"482","magento_region_code":"LT-TE","magento_region_name":"Tel\u0161i\u0173 Apskritis"},{"id":"334","title":"Vilniaus g. 17A, Mick\u016bnai","postal_code":"LT-13116","code":"1503","address":"Vilniaus g. 17A, Mick\u016bnai","city":"Mick\u016bnai","name_for_sorting":"Mick\u016bnai","magento_region_id":"484","magento_region_code":"LT-VL","magento_region_name":"Vilniaus Apskritis"},{"id":"309","title":"Vilniaus g. 43, Mol\u0117tai","postal_code":"LT-33102","code":"4102","address":"Vilniaus g. 43, Mol\u0117tai","city":"Mol\u0117tai","name_for_sorting":"Mol\u0117tai","magento_region_id":"483","magento_region_code":"LT-UT","magento_region_name":"Utenos Apskritis"},{"id":"449","title":"Vytauto g. 183, Narsie\u010diai","postal_code":"LT-53304","code":"0255","address":"Vytauto g. 183, Narsie\u010diai","city":"Narsie\u010diai","name_for_sorting":"Narsie\u010diai","magento_region_id":"476","magento_region_code":"LT-KU","magento_region_name":"Kauno Apskritis"},{"id":"54","title":"V. Kudirkos g. 18, Naujoji Akmen\u0117","postal_code":"LT-85171","code":"2401","address":"V. Kudirkos g. 18, Naujoji Akmen\u0117","city":"Naujoji Akmen\u0117","name_for_sorting":"Naujoji Akmen\u0117","magento_region_id":"480","magento_region_code":"LT-SA","magento_region_name":"\u0160iauli\u0173 Apskritis"},{"id":"543","title":"Vilijos g. 2, Nemen\u010din\u0117","postal_code":"LT-15174","code":"6101","address":"Vilijos g. 2, Nemen\u010din\u0117","city":"Nemen\u010din\u0117","name_for_sorting":"Nemen\u010din\u0117","magento_region_id":"484","magento_region_code":"LT-VL","magento_region_name":"Vilniaus Apskritis"},{"id":"544","title":"Vilniaus g. 42, Nemen\u010din\u0117","postal_code":"LT-15173","code":"6102","address":"Vilniaus g. 42, Nemen\u010din\u0117","city":"Nemen\u010din\u0117","name_for_sorting":"Nemen\u010din\u0117","magento_region_id":"484","magento_region_code":"LT-VL","magento_region_name":"Vilniaus Apskritis"},{"id":"294","title":"V.Sirokoml\u0117s g. 4, Nem\u0117\u017eis","postal_code":"LT-13260","code":"5201","address":"V.Sirokoml\u0117s g. 4, Nem\u0117\u017eis","city":"Nem\u0117\u017eis","name_for_sorting":"Nem\u0117\u017eis","magento_region_id":"484","magento_region_code":"LT-VL","magento_region_name":"Vilniaus Apskritis"},{"id":"499","title":"Nagli\u0173 g.29A, Nida, Nida","postal_code":"LT-93123","code":"0325","address":"Nagli\u0173 g.29A, Nida, Nida","city":"Nida","name_for_sorting":"Nida"},{"id":"318","title":"\u0160iltnami\u0173 g. 19, Noreiki\u0161k\u0117s","postal_code":"LT-53363","code":"0239","address":"\u0160iltnami\u0173 g. 19, Noreiki\u0161k\u0117s","city":"Noreiki\u0161k\u0117s","name_for_sorting":"Noreiki\u0161k\u0117s","magento_region_id":"476","magento_region_code":"LT-KU","magento_region_name":"Kauno Apskritis"},{"id":"356","title":"Mol\u0117t\u0173 g. 4, Pabrad\u0117","postal_code":"LT-18169","code":"1506","address":"Mol\u0117t\u0173 g. 4, Pabrad\u0117","city":"Pabrad\u0117","name_for_sorting":"Pabrad\u0117","magento_region_id":"484","magento_region_code":"LT-VL","magento_region_name":"Vilniaus Apskritis"},{"id":"349","title":"Vilniaus g. 18A, Pag\u0117giai","postal_code":"LT-99292","code":"6001","address":"Vilniaus g. 18A, Pag\u0117giai","city":"Pag\u0117giai","name_for_sorting":"Pag\u0117giai","magento_region_id":"481","magento_region_code":"LT-TA","magento_region_name":"Taurag\u0117s Apskritis"},{"id":"404","title":"Durpi\u0173 g. 40, Pagiriai","postal_code":"LT-14118","code":"5105","address":"Durpi\u0173 g. 40, Pagiriai","city":"Pagiriai","name_for_sorting":"Pagiriai","magento_region_id":"476","magento_region_code":"LT-KU","magento_region_name":"Kauno Apskritis"},{"id":"67","title":"Vytauto Did\u017eiojo g. 17, Pakruojis","postal_code":"LT-83155","code":"3701","address":"Vytauto Did\u017eiojo g. 17, Pakruojis","city":"Pakruojis","name_for_sorting":"Pakruojis","magento_region_id":"480","magento_region_code":"LT-SA","magento_region_name":"\u0160iauli\u0173 Apskritis"},{"id":"52","title":"Plyt\u0173 g. 9a, Palanga","postal_code":"LT-00129","code":"2201","address":"Plyt\u0173 g. 9a, Palanga","city":"Palanga","name_for_sorting":"Palanga","magento_region_id":"477","magento_region_code":"LT-KL","magento_region_name":"Klaip\u0117dos Apskritis"},{"id":"308","title":"Klaip\u0117dos pl. 59, Palanga","postal_code":"LT-00230","code":"2202","address":"Klaip\u0117dos pl. 59, Palanga","city":"Palanga","name_for_sorting":"Palanga","magento_region_id":"477","magento_region_code":"LT-KL","magento_region_name":"Klaip\u0117dos Apskritis"},{"id":"487","title":"Klaip\u0117dos pl. 42, Palanga","postal_code":"LT-00129","code":"2203","address":"Klaip\u0117dos pl. 42, Palanga","city":"Palanga","name_for_sorting":"Palanga","magento_region_id":"477","magento_region_code":"LT-KL","magento_region_name":"Klaip\u0117dos Apskritis"},{"id":"32","title":"Klaip\u0117dos g. 82, Panev\u0117\u017eys","postal_code":"LT-35195","code":"0501","address":"Klaip\u0117dos g. 82, Panev\u0117\u017eys","city":"Panev\u0117\u017eys","name_for_sorting":"Panev\u0117\u017eys","magento_region_id":"479","magento_region_code":"LT-PN","magento_region_name":"Panev\u0117\u017eio Apskritis"},{"id":"33","title":"Respublikos g. 71, Panev\u0117\u017eys","postal_code":"LT-35157","code":"0502","address":"Respublikos g. 71, Panev\u0117\u017eys","city":"Panev\u0117\u017eys","name_for_sorting":"Panev\u0117\u017eys","magento_region_id":"479","magento_region_code":"LT-PN","magento_region_name":"Panev\u0117\u017eio Apskritis"},{"id":"34","title":"Ukmerg\u0117s g. 18, Panev\u0117\u017eys","postal_code":"LT-35201","code":"0503","address":"Ukmerg\u0117s g. 18, Panev\u0117\u017eys","city":"Panev\u0117\u017eys","name_for_sorting":"Panev\u0117\u017eys","magento_region_id":"479","magento_region_code":"LT-PN","magento_region_name":"Panev\u0117\u017eio Apskritis"},{"id":"88","title":"Klaip\u0117dos g. 143A, Panev\u0117\u017eys","postal_code":"LT-37189","code":"0504","address":"Klaip\u0117dos g. 143A, Panev\u0117\u017eys","city":"Panev\u0117\u017eys","name_for_sorting":"Panev\u0117\u017eys","magento_region_id":"479","magento_region_code":"LT-PN","magento_region_name":"Panev\u0117\u017eio Apskritis"},{"id":"112","title":"Sm\u0117lyn\u0117s g. 112A, Panev\u0117\u017eys","postal_code":"LT-35113","code":"0505","address":"Sm\u0117lyn\u0117s g. 112A, Panev\u0117\u017eys","city":"Panev\u0117\u017eys","name_for_sorting":"Panev\u0117\u017eys","magento_region_id":"479","magento_region_code":"LT-PN","magento_region_name":"Panev\u0117\u017eio Apskritis"},{"id":"325","title":"Auk\u0161tai\u010di\u0173 g. 88, Panev\u0117\u017eys","postal_code":"LT-36115","code":"0506","address":"Auk\u0161tai\u010di\u0173 g. 88, Panev\u0117\u017eys","city":"Panev\u0117\u017eys","name_for_sorting":"Panev\u0117\u017eys","magento_region_id":"479","magento_region_code":"LT-PN","magento_region_name":"Panev\u0117\u017eio Apskritis"},{"id":"376","title":"Kosmonaut\u0173 g.14 , Panev\u0117\u017eys","postal_code":"LT-37355","code":"0508","address":"Kosmonaut\u0173 g.14 , Panev\u0117\u017eys","city":"Panev\u0117\u017eys","name_for_sorting":"Panev\u0117\u017eys","magento_region_id":"479","magento_region_code":"LT-PN","magento_region_name":"Panev\u0117\u017eio Apskritis"},{"id":"379","title":"J.Basanavi\u010diaus g. 67, Panev\u0117\u017eys","postal_code":"LT-36204","code":"0507","address":"J.Basanavi\u010diaus g. 67, Panev\u0117\u017eys","city":"Panev\u0117\u017eys","name_for_sorting":"Panev\u0117\u017eys","magento_region_id":"479","magento_region_code":"LT-PN","magento_region_name":"Panev\u0117\u017eio Apskritis"},{"id":"443","title":"Molaini\u0173 g. 11, Panev\u0117\u017eys","postal_code":"LT-37162","code":"0509","address":"Molaini\u0173 g. 11, Panev\u0117\u017eys","city":"Panev\u0117\u017eys","name_for_sorting":"Panev\u0117\u017eys","magento_region_id":"479","magento_region_code":"LT-PN","magento_region_name":"Panev\u0117\u017eio Apskritis"},{"id":"450","title":"Vasario 16-osios g. 55, Panev\u0117\u017eys","postal_code":"LT-35187","code":"0510","address":"Vasario 16-osios g. 55, Panev\u0117\u017eys","city":"Panev\u0117\u017eys","name_for_sorting":"Panev\u0117\u017eys","magento_region_id":"479","magento_region_code":"LT-PN","magento_region_name":"Panev\u0117\u017eio Apskritis"},{"id":"522","title":"Molaini\u0173 g 15, Panev\u0117\u017eys","postal_code":"LT-37162","code":"7523","address":"Molaini\u0173 g 15, Panev\u0117\u017eys","city":"Panev\u0117\u017eys","name_for_sorting":"Panev\u0117\u017eys","magento_region_id":"479","magento_region_code":"LT-PN","magento_region_name":"Panev\u0117\u017eio Apskritis"},{"id":"523","title":"Klaip\u0117dos g. 103, Panev\u0117\u017eys","postal_code":"LT-37311","code":"7524","address":"Klaip\u0117dos g. 103, Panev\u0117\u017eys","city":"Panev\u0117\u017eys","name_for_sorting":"Panev\u0117\u017eys","magento_region_id":"479","magento_region_code":"LT-PN","magento_region_name":"Panev\u0117\u017eio Apskritis"},{"id":"529","title":"Nemuno g. 70, Panev\u0117\u017eys","postal_code":"LT-35190","code":"7530","address":"Nemuno g. 70, Panev\u0117\u017eys","city":"Panev\u0117\u017eys","name_for_sorting":"Panev\u0117\u017eys","magento_region_id":"479","magento_region_code":"LT-PN","magento_region_name":"Panev\u0117\u017eio Apskritis"},{"id":"539","title":"Marijon\u0173 g.25, Panev\u0117\u017eys","postal_code":"LT-35129","code":"0511","address":"Marijon\u0173 g.25, Panev\u0117\u017eys","city":"Panev\u0117\u017eys","name_for_sorting":"Panev\u0117\u017eys","magento_region_id":"479","magento_region_code":"LT-PN","magento_region_name":"Panev\u0117\u017eio Apskritis"},{"id":"545","title":"Ragaud\u017ei\u0173 g.2, Panev\u0117\u017eys","postal_code":"LT-36265","code":"0512","address":"Ragaud\u017ei\u0173 g.2, Panev\u0117\u017eys","city":"Panev\u0117\u017eys","name_for_sorting":"Panev\u0117\u017eys","magento_region_id":"479","magento_region_code":"LT-PN","magento_region_name":"Panev\u0117\u017eio Apskritis"},{"id":"65","title":"Vilniaus g. 48, Pasvalys","postal_code":"LT-39177","code":"3501","address":"Vilniaus g. 48, Pasvalys","city":"Pasvalys","name_for_sorting":"Pasvalys","magento_region_id":"479","magento_region_code":"LT-PN","magento_region_name":"Panev\u0117\u017eio Apskritis"},{"id":"458","title":"Vasario 16-osios g. 16, Pilvi\u0161kiai","postal_code":"LT-70485","code":"1404","address":"Vasario 16-osios g. 16, Pilvi\u0161kiai","city":"Pilvi\u0161kiai","name_for_sorting":"Pilvi\u0161kiai","magento_region_id":"478","magento_region_code":"LT-MR","magento_region_name":"Marijampol\u0117s Apskritis"},{"id":"47","title":"J.Tumo-Vai\u017eganto g. 81, Plung\u0117","postal_code":"LT-90160","code":"1701","address":"J.Tumo-Vai\u017eganto g. 81, Plung\u0117","city":"Plung\u0117","name_for_sorting":"Plung\u0117","magento_region_id":"482","magento_region_code":"LT-TE","magento_region_name":"Tel\u0161i\u0173 Apskritis"},{"id":"337","title":"Laisv\u0117s g. 5, Plung\u0117","postal_code":"LT-90156","code":"1702","address":"Laisv\u0117s g. 5, Plung\u0117","city":"Plung\u0117","name_for_sorting":"Plung\u0117","magento_region_id":"482","magento_region_code":"LT-TE","magento_region_name":"Tel\u0161i\u0173 Apskritis"},{"id":"390","title":"J.Tumo-Vai\u017eganto g. 110, Plung\u0117","postal_code":"LT-90142","code":"1704","address":"J.Tumo-Vai\u017eganto g. 110, Plung\u0117","city":"Plung\u0117","name_for_sorting":"Plung\u0117","magento_region_id":"482","magento_region_code":"LT-TE","magento_region_name":"Tel\u0161i\u0173 Apskritis"},{"id":"445","title":"Kalni\u0161ki\u0173 g.18, Plung\u0117","postal_code":"LT-90158","code":"1705","address":"Kalni\u0161ki\u0173 g.18, Plung\u0117","city":"Plung\u0117","name_for_sorting":"Plung\u0117","magento_region_id":"482","magento_region_code":"LT-TE","magento_region_name":"Tel\u0161i\u0173 Apskritis"},{"id":"466","title":"Dariaus ir Gir\u0117no g. 54, Plung\u0117","postal_code":"LT-90169","code":"1706","address":"Dariaus ir Gir\u0117no g. 54, Plung\u0117","city":"Plung\u0117","name_for_sorting":"Plung\u0117","magento_region_id":"482","magento_region_code":"LT-TE","magento_region_name":"Tel\u0161i\u0173 Apskritis"},{"id":"62","title":"Kauno g. 34, Prienai","postal_code":"LT-59147","code":"3201","address":"Kauno g. 34, Prienai","city":"Prienai","name_for_sorting":"Prienai","magento_region_id":"476","magento_region_code":"LT-KU","magento_region_name":"Kauno Apskritis"},{"id":"476","title":"J.Basanavi\u010diaus g. 15, Prienai","postal_code":"LT-59151","code":"3203","address":"J.Basanavi\u010diaus g. 15, Prienai","city":"Prienai","name_for_sorting":"Prienai","magento_region_id":"476","magento_region_code":"LT-KU","magento_region_name":"Kauno Apskritis"},{"id":"49","title":"Gedimino g. 35, Radvili\u0161kis","postal_code":"LT-82168","code":"1901","address":"Gedimino g. 35, Radvili\u0161kis","city":"Radvili\u0161kis","name_for_sorting":"Radvili\u0161kis","magento_region_id":"480","magento_region_code":"LT-SA","magento_region_name":"\u0160iauli\u0173 Apskritis"},{"id":"358","title":"Taikos g. 9, Radvili\u0161kis","postal_code":"LT-82128","code":"1904","address":"Taikos g. 9, Radvili\u0161kis","city":"Radvili\u0161kis","name_for_sorting":"Radvili\u0161kis","magento_region_id":"480","magento_region_code":"LT-SA","magento_region_name":"\u0160iauli\u0173 Apskritis"},{"id":"460","title":"Turgaus g. 12, Radvili\u0161kis","postal_code":"LT-82179","code":"1905","address":"Turgaus g. 12, Radvili\u0161kis","city":"Radvili\u0161kis","name_for_sorting":"Radvili\u0161kis","magento_region_id":"480","magento_region_code":"LT-SA","magento_region_name":"\u0160iauli\u0173 Apskritis"},{"id":"56","title":"\u017demai\u010di\u0173 g. 2, Raseiniai","postal_code":"LT-60119","code":"2601","address":"\u017demai\u010di\u0173 g. 2, Raseiniai","city":"Raseiniai","name_for_sorting":"Raseiniai","magento_region_id":"476","magento_region_code":"LT-KU","magento_region_name":"Kauno Apskritis"},{"id":"430","title":"Jaunimo g. 14, Raseiniai","postal_code":"LT-60128","code":"2603","address":"Jaunimo g. 14, Raseiniai","city":"Raseiniai","name_for_sorting":"Raseiniai","magento_region_id":"476","magento_region_code":"LT-KU","magento_region_name":"Kauno Apskritis"},{"id":"355","title":"J.Naujalio g. 20B, Raudondvaris","postal_code":"LT-54138","code":"0243","address":"J.Naujalio g. 20B, Raudondvaris","city":"Raudondvaris","name_for_sorting":"Raudondvaris","magento_region_id":"476","magento_region_code":"LT-KU","magento_region_name":"Kauno Apskritis"},{"id":"90","title":"Mol\u0117t\u0173 g. 13, Rie\u0161\u0117","postal_code":"LT-14262","code":"4901","address":"Mol\u0117t\u0173 g. 13, Rie\u0161\u0117","city":"Rie\u0161\u0117","name_for_sorting":"Rie\u0161\u0117","magento_region_id":"484","magento_region_code":"LT-VL","magento_region_name":"Vilniaus Apskritis"},{"id":"362","title":"Ber\u017e\u0173 g. 92, Rie\u0161\u0117","postal_code":"LT-14266","code":"4902","address":"Ber\u017e\u0173 g. 92, Rie\u0161\u0117","city":"Rie\u0161\u0117","name_for_sorting":"Rie\u0161\u0117","magento_region_id":"484","magento_region_code":"LT-VL","magento_region_name":"Vilniaus Apskritis"},{"id":"338","title":"Plung\u0117s g. 21, Rietavas","postal_code":"LT-90313","code":"1703","address":"Plung\u0117s g. 21, Rietavas","city":"Rietavas","name_for_sorting":"Rietavas","magento_region_id":"482","magento_region_code":"LT-TE","magento_region_name":"Tel\u0161i\u0173 Apskritis"},{"id":"53","title":"Respublikos g. 113, Roki\u0161kis","postal_code":"LT-42150","code":"2301","address":"Respublikos g. 113, Roki\u0161kis","city":"Roki\u0161kis","name_for_sorting":"Roki\u0161kis","magento_region_id":"479","magento_region_code":"LT-PN","magento_region_name":"Panev\u0117\u017eio Apskritis"},{"id":"407","title":"Panev\u0117\u017eio g. 16, Roki\u0161kis","postal_code":"LT-42162","code":"2302","address":"Panev\u0117\u017eio g. 16, Roki\u0161kis","city":"Roki\u0161kis","name_for_sorting":"Roki\u0161kis","magento_region_id":"479","magento_region_code":"LT-PN","magento_region_name":"Panev\u0117\u017eio Apskritis"},{"id":"405","title":"Gamyklos g.26, Rudamina","postal_code":"LT-13249","code":"5203","address":"Gamyklos g.26, Rudamina","city":"Rudamina","name_for_sorting":"Rudamina","magento_region_id":"484","magento_region_code":"LT-VL","magento_region_name":"Vilniaus Apskritis"},{"id":"350","title":"Palukn\u0117s g. 1, R\u016bdi\u0161k\u0117s","postal_code":"LT-21172","code":"7001","address":"Palukn\u0117s g. 1, R\u016bdi\u0161k\u0117s","city":"R\u016bdi\u0161k\u0117s","name_for_sorting":"R\u016bdi\u0161k\u0117s","magento_region_id":"484","magento_region_code":"LT-VL","magento_region_name":"Vilniaus Apskritis"},{"id":"329","title":"Karaliaus Mindaugo g. 10, Rukla","postal_code":"LT-55285","code":"1002","address":"Karaliaus Mindaugo g. 10, Rukla","city":"Rukla","name_for_sorting":"Rukla","magento_region_id":"476","magento_region_code":"LT-KU","magento_region_name":"Kauno Apskritis"},{"id":"403","title":"L. Lekavi\u010diaus g. 32, Rum\u0161i\u0161k\u0117s","postal_code":"LT-56337","code":"4203","address":"L. Lekavi\u010diaus g. 32, Rum\u0161i\u0161k\u0117s","city":"Rum\u0161i\u0161k\u0117s","name_for_sorting":"Rum\u0161i\u0161k\u0117s","magento_region_id":"476","magento_region_code":"LT-KU","magento_region_name":"Kauno Apskritis"},{"id":"63","title":"V. Kudirkos g. 66, \u0160akiai","postal_code":"LT-71125","code":"3301","address":"V. Kudirkos g. 66, \u0160akiai","city":"\u0160akiai","name_for_sorting":"\u0160akiai","magento_region_id":"478","magento_region_code":"LT-MR","magento_region_name":"Marijampol\u0117s Apskritis"},{"id":"437","title":"\u0160auli\u0173 g. 49, \u0160akiai","postal_code":"LT-71117","code":"3302","address":"\u0160auli\u0173 g. 49, \u0160akiai","city":"\u0160akiai","name_for_sorting":"\u0160akiai","magento_region_id":"478","magento_region_code":"LT-MR","magento_region_name":"Marijampol\u0117s Apskritis"},{"id":"494","title":"A.Salio g. 5, Salantai","postal_code":"LT-97322","code":"1805","address":"A.Salio g. 5, Salantai","city":"Salantai","name_for_sorting":"Salantai","magento_region_id":"477","magento_region_code":"LT-KL","magento_region_name":"Klaip\u0117dos Apskritis"},{"id":"414","title":"Vilniaus g. 61, \u0160al\u010dininkai","postal_code":"LT-17116","code":"5204","address":"Vilniaus g. 61, \u0160al\u010dininkai","city":"\u0160al\u010dininkai","name_for_sorting":"\u0160al\u010dininkai","magento_region_id":"484","magento_region_code":"LT-VL","magento_region_name":"Vilniaus Apskritis"},{"id":"340","title":"Paneve\u017eio g. 33, \u0160eduva","postal_code":"LT-82224","code":"1903","address":"Paneve\u017eio g. 33, \u0160eduva","city":"\u0160eduva","name_for_sorting":"\u0160eduva","magento_region_id":"480","magento_region_code":"LT-SA","magento_region_name":"\u0160iauli\u0173 Apskritis"},{"id":"29","title":"Aido g. 8, \u0160iauliai","postal_code":"LT-78322","code":"0401","address":"Aido g. 8, \u0160iauliai","city":"\u0160iauliai","name_for_sorting":"\u0160iauliai","magento_region_id":"480","magento_region_code":"LT-SA","magento_region_name":"\u0160iauli\u0173 Apskritis"},{"id":"31","title":"Til\u017e\u0117s g. 109, \u0160iauliai","postal_code":"LT-77159","code":"0404","address":"Til\u017e\u0117s g. 109, \u0160iauliai","city":"\u0160iauliai","name_for_sorting":"\u0160iauliai","magento_region_id":"480","magento_region_code":"LT-SA","magento_region_name":"\u0160iauli\u0173 Apskritis"},{"id":"87","title":"Gardino g. 2, \u0160iauliai","postal_code":"LT-78230","code":"0405","address":"Gardino g. 2, \u0160iauliai","city":"\u0160iauliai","name_for_sorting":"\u0160iauliai","magento_region_id":"480","magento_region_code":"LT-SA","magento_region_name":"\u0160iauli\u0173 Apskritis"},{"id":"111","title":"M. Valan\u010diaus g. 18, \u0160iauliai","postal_code":"LT-76302","code":"0406","address":"M. Valan\u010diaus g. 18, \u0160iauliai","city":"\u0160iauliai","name_for_sorting":"\u0160iauliai","magento_region_id":"480","magento_region_code":"LT-SA","magento_region_name":"\u0160iauli\u0173 Apskritis"},{"id":"324","title":"Lyros g. 19A, \u0160iauliai","postal_code":"LT-78268","code":"0407","address":"Lyros g. 19A, \u0160iauliai","city":"\u0160iauliai","name_for_sorting":"\u0160iauliai","magento_region_id":"480","magento_region_code":"LT-SA","magento_region_name":"\u0160iauli\u0173 Apskritis"},{"id":"368","title":"Birut\u0117s g. 37, \u0160iauliai","postal_code":"LT-76215","code":"0408","address":"Birut\u0117s g. 37, \u0160iauliai","city":"\u0160iauliai","name_for_sorting":"\u0160iauliai","magento_region_id":"480","magento_region_code":"LT-SA","magento_region_name":"\u0160iauli\u0173 Apskritis"},{"id":"374","title":"Pramon\u0117s g.  1A, \u0160iauliai","postal_code":"LT-78137","code":"0409","address":"Pramon\u0117s g.  1A, \u0160iauliai","city":"\u0160iauliai","name_for_sorting":"\u0160iauliai","magento_region_id":"480","magento_region_code":"LT-SA","magento_region_name":"\u0160iauli\u0173 Apskritis"},{"id":"393","title":"Til\u017e\u0117s g. 217, \u0160iauliai","postal_code":"LT-76200","code":"0410","address":"Til\u017e\u0117s g. 217, \u0160iauliai","city":"\u0160iauliai","name_for_sorting":"\u0160iauliai","magento_region_id":"480","magento_region_code":"LT-SA","magento_region_name":"\u0160iauli\u0173 Apskritis"},{"id":"394","title":"Til\u017e\u0117s g. 3, \u0160iauliai","postal_code":"LT-78322","code":"0411","address":"Til\u017e\u0117s g. 3, \u0160iauliai","city":"\u0160iauliai","name_for_sorting":"\u0160iauliai","magento_region_id":"480","magento_region_code":"LT-SA","magento_region_name":"\u0160iauli\u0173 Apskritis"},{"id":"442","title":"Gumbin\u0117s g. 145A, \u0160iauliai","postal_code":"LT-76326","code":"0412","address":"Gumbin\u0117s g. 145A, \u0160iauliai","city":"\u0160iauliai","name_for_sorting":"\u0160iauliai","magento_region_id":"480","magento_region_code":"LT-SA","magento_region_name":"\u0160iauli\u0173 Apskritis"},{"id":"486","title":"Draugyst\u0117s pr. 2, \u0160iauliai","postal_code":"LT-77147","code":"0413","address":"Draugyst\u0117s pr. 2, \u0160iauliai","city":"\u0160iauliai","name_for_sorting":"\u0160iauliai","magento_region_id":"480","magento_region_code":"LT-SA","magento_region_name":"\u0160iauli\u0173 Apskritis"},{"id":"496","title":"Vilties g. 1, Dain\u0173 k., \u0160iauliai","postal_code":"LT-77209","code":"0414","address":"Vilties g. 1, Dain\u0173 k., \u0160iauliai","city":"\u0160iauliai","name_for_sorting":"\u0160iauliai","magento_region_id":"480","magento_region_code":"LT-SA","magento_region_name":"\u0160iauli\u0173 Apskritis"},{"id":"524","title":"Vytauto g. 122, \u0160iauliai","postal_code":"LT-76341","code":"7525","address":"Vytauto g. 122, \u0160iauliai","city":"\u0160iauliai","name_for_sorting":"\u0160iauliai","magento_region_id":"480","magento_region_code":"LT-SA","magento_region_name":"\u0160iauli\u0173 Apskritis"},{"id":"525","title":"Pramon\u0117s g. 23, \u0160iauliai","postal_code":"LT-78136","code":"7526","address":"Pramon\u0117s g. 23, \u0160iauliai","city":"\u0160iauliai","name_for_sorting":"\u0160iauliai","magento_region_id":"480","magento_region_code":"LT-SA","magento_region_name":"\u0160iauli\u0173 Apskritis"},{"id":"542","title":"Vilniaus g.3, \u0160iauliai","postal_code":"LT-76275","code":"0415","address":"Vilniaus g.3, \u0160iauliai","city":"\u0160iauliai","name_for_sorting":"\u0160iauliai","magento_region_id":"480","magento_region_code":"LT-SA","magento_region_name":"\u0160iauli\u0173 Apskritis"},{"id":"562","title":"Aido g. 12, \u0160iauliai","postal_code":"LT-78322","code":"7550","address":"Aido g. 12, \u0160iauliai","city":"\u0160iauliai","name_for_sorting":"\u0160iauliai","magento_region_id":"480","magento_region_code":"LT-SA","magento_region_name":"\u0160iauli\u0173 Apskritis"},{"id":"563","title":"Draugyst\u0117s pr. 14, \u0160iauliai","postal_code":"LT-77150","code":"7551","address":"Draugyst\u0117s pr. 14, \u0160iauliai","city":"\u0160iauliai","name_for_sorting":"\u0160iauliai","magento_region_id":"480","magento_region_code":"LT-SA","magento_region_name":"\u0160iauli\u0173 Apskritis"},{"id":"70","title":"Dariaus ir Gir\u0117no g. 12, \u0160ilal\u0117","postal_code":"LT-75135","code":"4001","address":"Dariaus ir Gir\u0117no g. 12, \u0160ilal\u0117","city":"\u0160ilal\u0117","name_for_sorting":"\u0160ilal\u0117","magento_region_id":"481","magento_region_code":"LT-TA","magento_region_name":"Taurag\u0117s Apskritis"},{"id":"471","title":"J. Basanavi\u010diaus g. 21, \u0160ilal\u0117","postal_code":"LT-75124","code":"4002","address":"J. Basanavi\u010diaus g. 21, \u0160ilal\u0117","city":"\u0160ilal\u0117","name_for_sorting":"\u0160ilal\u0117","magento_region_id":"481","magento_region_code":"LT-TA","magento_region_name":"Taurag\u0117s Apskritis"},{"id":"50","title":"Lietuvinink\u0173 g. 39, \u0160ilut\u0117","postal_code":"LT-99134","code":"2001","address":"Lietuvinink\u0173 g. 39, \u0160ilut\u0117","city":"\u0160ilut\u0117","name_for_sorting":"\u0160ilut\u0117","magento_region_id":"477","magento_region_code":"LT-KL","magento_region_name":"Klaip\u0117dos Apskritis"},{"id":"369","title":"Til\u017e\u0117s g. 22, \u0160ilut\u0117","postal_code":"LT-99169","code":"2002","address":"Til\u017e\u0117s g. 22, \u0160ilut\u0117","city":"\u0160ilut\u0117","name_for_sorting":"\u0160ilut\u0117","magento_region_id":"477","magento_region_code":"LT-KL","magento_region_name":"Klaip\u0117dos Apskritis"},{"id":"467","title":"Dariaus ir Gir\u0117no g. 11, \u0160ilut\u0117","postal_code":"LT-99129","code":"2004","address":"Dariaus ir Gir\u0117no g. 11, \u0160ilut\u0117","city":"\u0160ilut\u0117","name_for_sorting":"\u0160ilut\u0117","magento_region_id":"477","magento_region_code":"LT-KL","magento_region_name":"Klaip\u0117dos Apskritis"},{"id":"540","title":"Vytauto g.30, Simnas","postal_code":"LT-64304","code":"0707","address":"Vytauto g.30, Simnas","city":"Simnas","name_for_sorting":"Simnas"},{"id":"413","title":"I.\u0160einiaus g. 19, \u0160irvintos","postal_code":"LT-19125","code":"2104","address":"I.\u0160einiaus g. 19, \u0160irvintos","city":"\u0160irvintos","name_for_sorting":"\u0160irvintos","magento_region_id":"484","magento_region_code":"LT-VL","magento_region_name":"Vilniaus Apskritis"},{"id":"439","title":"Zibal\u0173 g. 11, \u0160irvintos","postal_code":"LT-19110","code":"2106","address":"Zibal\u0173 g. 11, \u0160irvintos","city":"\u0160irvintos","name_for_sorting":"\u0160irvintos","magento_region_id":"484","magento_region_code":"LT-VL","magento_region_name":"Vilniaus Apskritis"},{"id":"484","title":"Rudaminos g. 29, Skaidi\u0161k\u0117s","postal_code":"LT-13275","code":"5206","address":"Rudaminos g. 29, Skaidi\u0161k\u0117s","city":"Skaidi\u0161k\u0117s","name_for_sorting":"Skaidi\u0161k\u0117s","magento_region_id":"484","magento_region_code":"LT-VL","magento_region_name":"Vilniaus Apskritis"},{"id":"339","title":"Gedimino g. 6, Skuodas","postal_code":"LT-98116","code":"1802","address":"Gedimino g. 6, Skuodas","city":"Skuodas","name_for_sorting":"Skuodas","magento_region_id":"477","magento_region_code":"LT-KL","magento_region_name":"Klaip\u0117dos Apskritis"},{"id":"546","title":"J.Tumo-Vai\u017eganto g.18A, Sv\u0117dasai","postal_code":"LT-29351","code":"3003","address":"J.Tumo-Vai\u017eganto g.18A, Sv\u0117dasai","city":"Sv\u0117dasai","name_for_sorting":"Sv\u0117dasai"},{"id":"446","title":"Liep\u0173 a. 9, \u0160v\u0117k\u0161na","postal_code":"LT-99383","code":"2003","address":"Liep\u0173 a. 9, \u0160v\u0117k\u0161na","city":"\u0160v\u0117k\u0161na","name_for_sorting":"\u0160v\u0117k\u0161na","magento_region_id":"477","magento_region_code":"LT-KL","magento_region_name":"Klaip\u0117dos Apskritis"},{"id":"335","title":"\u017demutin\u0117s g. 26, \u0160ven\u010dion\u0117liai","postal_code":"LT-18212","code":"1504","address":"\u017demutin\u0117s g. 26, \u0160ven\u010dion\u0117liai","city":"\u0160ven\u010dion\u0117liai","name_for_sorting":"\u0160ven\u010dion\u0117liai","magento_region_id":"484","magento_region_code":"LT-VL","magento_region_name":"Vilniaus Apskritis"},{"id":"490","title":"Priesto\u010dio g.6, \u0160ven\u010dion\u0117liai","postal_code":"LT-18209","code":"1509","address":"Priesto\u010dio g.6, \u0160ven\u010dion\u0117liai","city":"\u0160ven\u010dion\u0117liai","name_for_sorting":"\u0160ven\u010dion\u0117liai","magento_region_id":"484","magento_region_code":"LT-VL","magento_region_name":"Vilniaus Apskritis"},{"id":"333","title":"Vilniaus g. 18, \u0160ven\u010dionys","postal_code":"LT-18123","code":"1502","address":"Vilniaus g. 18, \u0160ven\u010dionys","city":"\u0160ven\u010dionys","name_for_sorting":"\u0160ven\u010dionys","magento_region_id":"484","magento_region_code":"LT-VL","magento_region_name":"Vilniaus Apskritis"},{"id":"438","title":"Vilniaus g. 8, \u0160ven\u010dionys","postal_code":"LT-18123","code":"1507","address":"Vilniaus g. 8, \u0160ven\u010dionys","city":"\u0160ven\u010dionys","name_for_sorting":"\u0160ven\u010dionys","magento_region_id":"484","magento_region_code":"LT-VL","magento_region_name":"Vilniaus Apskritis"},{"id":"38","title":"Dariaus ir Gir\u0117no g. 48, Taurag\u0117","postal_code":"LT-72236","code":"0801","address":"Dariaus ir Gir\u0117no g. 48, Taurag\u0117","city":"Taurag\u0117","name_for_sorting":"Taurag\u0117","magento_region_id":"481","magento_region_code":"LT-TA","magento_region_name":"Taurag\u0117s Apskritis"},{"id":"305","title":"Dariaus ir Gir\u0117no g. 16 , Taurag\u0117","postal_code":"LT-72256","code":"0802","address":"Dariaus ir Gir\u0117no g. 16 , Taurag\u0117","city":"Taurag\u0117","name_for_sorting":"Taurag\u0117","magento_region_id":"481","magento_region_code":"LT-TA","magento_region_name":"Taurag\u0117s Apskritis"},{"id":"327","title":"\u0160ilal\u0117s g. 87C, Taurag\u0117","postal_code":"LT-72205","code":"0803","address":"\u0160ilal\u0117s g. 87C, Taurag\u0117","city":"Taurag\u0117","name_for_sorting":"Taurag\u0117","magento_region_id":"481","magento_region_code":"LT-TA","magento_region_name":"Taurag\u0117s Apskritis"},{"id":"473","title":"\u0160laito g. 1, Taurag\u0117","postal_code":"LT-72112","code":"0804","address":"\u0160laito g. 1, Taurag\u0117","city":"Taurag\u0117","name_for_sorting":"Taurag\u0117","magento_region_id":"481","magento_region_code":"LT-TA","magento_region_name":"Taurag\u0117s Apskritis"},{"id":"43","title":"Plung\u0117s g. 4, Tel\u0161iai","postal_code":"LT-87317","code":"1301","address":"Plung\u0117s g. 4, Tel\u0161iai","city":"Tel\u0161iai","name_for_sorting":"Tel\u0161iai","magento_region_id":"482","magento_region_code":"LT-TE","magento_region_name":"Tel\u0161i\u0173 Apskritis"},{"id":"375","title":"Luok\u0117s g. 74A, Tel\u0161iai","postal_code":"LT-87140","code":"1302","address":"Luok\u0117s g. 74A, Tel\u0161iai","city":"Tel\u0161iai","name_for_sorting":"Tel\u0161iai","magento_region_id":"482","magento_region_code":"LT-TE","magento_region_name":"Tel\u0161i\u0173 Apskritis"},{"id":"434","title":"Dariaus ir Gir\u0117no g. 11, Tel\u0161iai","postal_code":"LT-87352","code":"1303","address":"Dariaus ir Gir\u0117no g. 11, Tel\u0161iai","city":"Tel\u0161iai","name_for_sorting":"Tel\u0161iai","magento_region_id":"482","magento_region_code":"LT-TE","magento_region_name":"Tel\u0161i\u0173 Apskritis"},{"id":"554","title":"Luok\u0117s g.91, Tel\u0161iai","postal_code":"LT-87174","code":"1304","address":"Luok\u0117s g.91, Tel\u0161iai","city":"Tel\u0161iai","name_for_sorting":"Tel\u0161iai","magento_region_id":"482","magento_region_code":"LT-TE","magento_region_name":"Tel\u0161i\u0173 Apskritis"},{"id":"365","title":"Vytauto g. 90, Trakai","postal_code":"LT-21106","code":"5104","address":"Vytauto g. 90, Trakai","city":"Trakai","name_for_sorting":"Trakai","magento_region_id":"484","magento_region_code":"LT-VL","magento_region_name":"Vilniaus Apskritis"},{"id":"464","title":"Vilniaus g. 15C, Trakai","postal_code":"LT-21118","code":"5107","address":"Vilniaus g. 15C, Trakai","city":"Trakai","name_for_sorting":"Trakai","magento_region_id":"484","magento_region_code":"LT-VL","magento_region_name":"Vilniaus Apskritis"},{"id":"469","title":"J. Basanavi\u010diaus g. 1 , Tytuv\u0117nai","postal_code":"LT-86488","code":"2903","address":"J. Basanavi\u010diaus g. 1 , Tytuv\u0117nai","city":"Tytuv\u0117nai","name_for_sorting":"Tytuv\u0117nai","magento_region_id":"480","magento_region_code":"LT-SA","magento_region_name":"\u0160iauli\u0173 Apskritis"},{"id":"46","title":"\u017diedo g. 1, Ukmerg\u0117","postal_code":"LT-20118","code":"1601","address":"\u017diedo g. 1, Ukmerg\u0117","city":"Ukmerg\u0117","name_for_sorting":"Ukmerg\u0117","magento_region_id":"484","magento_region_code":"LT-VL","magento_region_name":"Vilniaus Apskritis"},{"id":"388","title":"Vytauto g. 111A, Ukmerg\u0117","postal_code":"LT-20184","code":"1602","address":"Vytauto g. 111A, Ukmerg\u0117","city":"Ukmerg\u0117","name_for_sorting":"Ukmerg\u0117","magento_region_id":"484","magento_region_code":"LT-VL","magento_region_name":"Vilniaus Apskritis"},{"id":"396","title":"Vilniaus g. 62, Ukmerg\u0117","postal_code":"LT-20159","code":"1603","address":"Vilniaus g. 62, Ukmerg\u0117","city":"Ukmerg\u0117","name_for_sorting":"Ukmerg\u0117","magento_region_id":"484","magento_region_code":"LT-VL","magento_region_name":"Vilniaus Apskritis"},{"id":"478","title":"Vasario 16-osios g. 30, Ukmerg\u0117","postal_code":"LT-20130","code":"1604","address":"Vasario 16-osios g. 30, Ukmerg\u0117","city":"Ukmerg\u0117","name_for_sorting":"Ukmerg\u0117","magento_region_id":"484","magento_region_code":"LT-VL","magento_region_name":"Vilniaus Apskritis"},{"id":"514","title":"Kauno g. 120B, Ukmerg\u0117","postal_code":"LT-20115","code":"7515","address":"Kauno g. 120B, Ukmerg\u0117","city":"Ukmerg\u0117","name_for_sorting":"Ukmerg\u0117","magento_region_id":"484","magento_region_code":"LT-VL","magento_region_name":"Vilniaus Apskritis"},{"id":"41","title":"J. Basanavi\u010diaus g. 121, Utena","postal_code":"LT-28214","code":"1101","address":"J. Basanavi\u010diaus g. 121, Utena","city":"Utena","name_for_sorting":"Utena","magento_region_id":"483","magento_region_code":"LT-UT","magento_region_name":"Utenos Apskritis"},{"id":"330","title":"J. Basanavi\u010diaus g. 52, Utena","postal_code":"LT-28142","code":"1102","address":"J. Basanavi\u010diaus g. 52, Utena","city":"Utena","name_for_sorting":"Utena","magento_region_id":"483","magento_region_code":"LT-UT","magento_region_name":"Utenos Apskritis"},{"id":"432","title":"Vai\u017eganto g. 17, Utena","postal_code":"LT-28197","code":"1104","address":"Vai\u017eganto g. 17, Utena","city":"Utena","name_for_sorting":"Utena","magento_region_id":"483","magento_region_code":"LT-UT","magento_region_name":"Utenos Apskritis"},{"id":"433","title":"Taikos g. 2 , Utena","postal_code":"LT-28153","code":"1103","address":"Taikos g. 2 , Utena","city":"Utena","name_for_sorting":"Utena","magento_region_id":"483","magento_region_code":"LT-UT","magento_region_name":"Utenos Apskritis"},{"id":"548","title":"J.Basanavi\u010diaus g.12, Utena","postal_code":"LT-28140","code":"1105","address":"J.Basanavi\u010diaus g.12, Utena","city":"Utena","name_for_sorting":"Utena","magento_region_id":"483","magento_region_code":"LT-UT","magento_region_name":"Utenos Apskritis"},{"id":"64","title":"Savanori\u0173 g. 5, Var\u0117na","postal_code":"LT-65186","code":"3401","address":"Savanori\u0173 g. 5, Var\u0117na","city":"Var\u0117na","name_for_sorting":"Var\u0117na","magento_region_id":"475","magento_region_code":"LT-AL","magento_region_name":"Alytaus Apskritis"},{"id":"360","title":"Vytauto g. 18, Var\u0117na","postal_code":"LT-65184","code":"3402","address":"Vytauto g. 18, Var\u0117na","city":"Var\u0117na","name_for_sorting":"Var\u0117na","magento_region_id":"475","magento_region_code":"LT-AL","magento_region_name":"Alytaus Apskritis"},{"id":"493","title":"Dariaus ir Gir\u0117no g. 13, Veisiejai","postal_code":"LT-67340","code":"3903","address":"Dariaus ir Gir\u0117no g. 13, Veisiejai","city":"Veisiejai","name_for_sorting":"Veisiejai","magento_region_id":"475","magento_region_code":"LT-AL","magento_region_name":"Alytaus Apskritis"},{"id":"359","title":"Plento g. 2A, Venta","postal_code":"LT-85310","code":"2403","address":"Plento g. 2A, Venta","city":"Venta","name_for_sorting":"Venta","magento_region_id":"480","magento_region_code":"LT-SA","magento_region_name":"\u0160iauli\u0173 Apskritis"},{"id":"541","title":"Garg\u017ed\u0173 g.29, V\u0117\u017eai\u010diai, V\u0117\u017eai\u010diai","postal_code":"LT-96216","code":"4504","address":"Garg\u017ed\u0173 g.29, V\u0117\u017eai\u010diai, V\u0117\u017eai\u010diai","city":"V\u0117\u017eai\u010diai","name_for_sorting":"V\u0117\u017eai\u010diai"},{"id":"448","title":"Tilto g. 14, Viek\u0161niai","postal_code":"LT-89492","code":"0905","address":"Tilto g. 14, Viek\u0161niai","city":"Viek\u0161niai","name_for_sorting":"Viek\u0161niai","magento_region_id":"482","magento_region_code":"LT-TE","magento_region_name":"Tel\u0161i\u0173 Apskritis"},{"id":"307","title":"Vilniaus g. 55A, Vievis","postal_code":"LT-21376","code":"2103","address":"Vilniaus g. 55A, Vievis","city":"Vievis","name_for_sorting":"Vievis","magento_region_id":"482","magento_region_code":"LT-TE","magento_region_name":"Tel\u0161i\u0173 Apskritis"},{"id":"44","title":"J. Basanavi\u010diaus a. 1, Vilkavi\u0161kis","postal_code":"LT-70101","code":"1401","address":"J. Basanavi\u010diaus a. 1, Vilkavi\u0161kis","city":"Vilkavi\u0161kis","name_for_sorting":"Vilkavi\u0161kis","magento_region_id":"478","magento_region_code":"LT-MR","magento_region_name":"Marijampol\u0117s Apskritis"},{"id":"395","title":"Vytauto g. 77, Vilkavi\u0161kis","postal_code":"LT-70139","code":"1403","address":"Vytauto g. 77, Vilkavi\u0161kis","city":"Vilkavi\u0161kis","name_for_sorting":"Vilkavi\u0161kis","magento_region_id":"478","magento_region_code":"LT-MR","magento_region_name":"Marijampol\u0117s Apskritis"},{"id":"344","title":"\u010ceki\u0161k\u0117s g. 98, Vilkija","postal_code":"LT-54221","code":"2802","address":"\u010ceki\u0161k\u0117s g. 98, Vilkija","city":"Vilkija","name_for_sorting":"Vilkija","magento_region_id":"478","magento_region_code":"LT-MR","magento_region_name":"Marijampol\u0117s Apskritis"},{"id":"1","title":"Ozo g. 25, Vilnius","postal_code":"LT-07150","code":"0101","address":"Ozo g. 25, Vilnius","city":"Vilnius","name_for_sorting":"Vilnius","magento_region_id":"484","magento_region_code":"LT-VL","magento_region_name":"Vilniaus Apskritis"},{"id":"2","title":"Ukmerg\u0117s g. 282, Vilnius","postal_code":"LT-06115","code":"0102","address":"Ukmerg\u0117s g. 282, Vilnius","city":"Vilnius","name_for_sorting":"Vilnius","magento_region_id":"484","magento_region_code":"LT-VL","magento_region_name":"Vilniaus Apskritis"},{"id":"3","title":"Minsko pl. 3, Vilnius","postal_code":"LT-02121","code":"0103","address":"Minsko pl. 3, Vilnius","city":"Vilnius","name_for_sorting":"Vilnius","magento_region_id":"484","magento_region_code":"LT-VL","magento_region_name":"Vilniaus Apskritis"},{"id":"4","title":"P. Luk\u0161io g. 34, Vilnius","postal_code":"LT-08235","code":"0104","address":"P. Luk\u0161io g. 34, Vilnius","city":"Vilnius","name_for_sorting":"Vilnius","magento_region_id":"484","magento_region_code":"LT-VL","magento_region_name":"Vilniaus Apskritis"},{"id":"5","title":"\u017dirm\u016bn\u0173 g. 84, Vilnius","postal_code":"LT-09118","code":"0105","address":"\u017dirm\u016bn\u0173 g. 84, Vilnius","city":"Vilnius","name_for_sorting":"Vilnius","magento_region_id":"484","magento_region_code":"LT-VL","magento_region_name":"Vilniaus Apskritis"},{"id":"6","title":"Pavilnioni\u0173 g. 55, Vilnius","postal_code":"LT-12144","code":"0106","address":"Pavilnioni\u0173 g. 55, Vilnius","city":"Vilnius","name_for_sorting":"Vilnius","magento_region_id":"484","magento_region_code":"LT-VL","magento_region_name":"Vilniaus Apskritis"},{"id":"7","title":"J. Ti\u0161kevi\u010diaus g. 22, Vilnius","postal_code":"LT-02231","code":"0107","address":"J. Ti\u0161kevi\u010diaus g. 22, Vilnius","city":"Vilnius","name_for_sorting":"Vilnius","magento_region_id":"484","magento_region_code":"LT-VL","magento_region_name":"Vilniaus Apskritis"},{"id":"8","title":"Saltoni\u0161ki\u0173 g. 9, Vilnius","postal_code":"LT-08105","code":"0108","address":"Saltoni\u0161ki\u0173 g. 9, Vilnius","city":"Vilnius","name_for_sorting":"Vilnius","magento_region_id":"484","magento_region_code":"LT-VL","magento_region_name":"Vilniaus Apskritis"},{"id":"11","title":"\u017dirm\u016bn\u0173 g. 2, Vilnius","postal_code":"LT-09214","code":"0111","address":"\u017dirm\u016bn\u0173 g. 2, Vilnius","city":"Vilnius","name_for_sorting":"Vilnius","magento_region_id":"484","magento_region_code":"LT-VL","magento_region_name":"Vilniaus Apskritis"},{"id":"12","title":"J. Jasinskio g. 16, Vilnius","postal_code":"LT-03163","code":"0112","address":"J. Jasinskio g. 16, Vilnius","city":"Vilnius","name_for_sorting":"Vilnius","magento_region_id":"484","magento_region_code":"LT-VL","magento_region_name":"Vilniaus Apskritis"},{"id":"72","title":"Ukmerg\u0117s g. 369, Vilnius","postal_code":"LT-06327","code":"0115","address":"Ukmerg\u0117s g. 369, Vilnius","city":"Vilnius","name_for_sorting":"Vilnius","magento_region_id":"484","magento_region_code":"LT-VL","magento_region_name":"Vilniaus Apskritis"},{"id":"73","title":"Pilait\u0117s pr. 31, Vilnius","postal_code":"LT-06269","code":"0114","address":"Pilait\u0117s pr. 31, Vilnius","city":"Vilnius","name_for_sorting":"Vilnius","magento_region_id":"484","magento_region_code":"LT-VL","magento_region_name":"Vilniaus Apskritis"},{"id":"81","title":"Mindaugo g. 25, Vilnius","postal_code":"LT-03214","code":"0116","address":"Mindaugo g. 25, Vilnius","city":"Vilnius","name_for_sorting":"Vilnius","magento_region_id":"484","magento_region_code":"LT-VL","magento_region_name":"Vilniaus Apskritis"},{"id":"82","title":"Rinktin\u0117s g. 60, Vilnius","postal_code":"LT-09318","code":"0117","address":"Rinktin\u0117s g. 60, Vilnius","city":"Vilnius","name_for_sorting":"Vilnius","magento_region_id":"484","magento_region_code":"LT-VL","magento_region_name":"Vilniaus Apskritis"},{"id":"84","title":"Juodasis kelias 34, Vilnius","postal_code":"LT-11307","code":"0120","address":"Juodasis kelias 34, Vilnius","city":"Vilnius","name_for_sorting":"Vilnius","magento_region_id":"484","magento_region_code":"LT-VL","magento_region_name":"Vilniaus Apskritis"},{"id":"85","title":"Naugarduko g. 84, Vilnius","postal_code":"LT-03160","code":"0119","address":"Naugarduko g. 84, Vilnius","city":"Vilnius","name_for_sorting":"Vilnius","magento_region_id":"484","magento_region_code":"LT-VL","magento_region_name":"Vilniaus Apskritis"},{"id":"89","title":"\u017dalgirio g. 105, Vilnius","postal_code":"LT-08211","code":"0122","address":"\u017dalgirio g. 105, Vilnius","city":"Vilnius","name_for_sorting":"Vilnius","magento_region_id":"484","magento_region_code":"LT-VL","magento_region_name":"Vilniaus Apskritis"},{"id":"96","title":"Fabijoni\u0161ki\u0173 g. 2A, Vilnius","postal_code":"LT-07109","code":"0121","address":"Fabijoni\u0161ki\u0173 g. 2A, Vilnius","city":"Vilnius","name_for_sorting":"Vilnius","magento_region_id":"484","magento_region_code":"LT-VL","magento_region_name":"Vilniaus Apskritis"},{"id":"99","title":"Architekt\u0173 g. 19, Vilnius","postal_code":"LT-04112","code":"0123","address":"Architekt\u0173 g. 19, Vilnius","city":"Vilnius","name_for_sorting":"Vilnius","magento_region_id":"484","magento_region_code":"LT-VL","magento_region_name":"Vilniaus Apskritis"},{"id":"103","title":"V. Gerulai\u010dio g. 10, Vilnius","postal_code":"LT-08200","code":"0124","address":"V. Gerulai\u010dio g. 10, Vilnius","city":"Vilnius","name_for_sorting":"Vilnius","magento_region_id":"484","magento_region_code":"LT-VL","magento_region_name":"Vilniaus Apskritis"},{"id":"106","title":"Bajor\u0173 kelias 4, Vilnius","postal_code":"LT-08412","code":"0125","address":"Bajor\u0173 kelias 4, Vilnius","city":"Vilnius","name_for_sorting":"Vilnius","magento_region_id":"484","magento_region_code":"LT-VL","magento_region_name":"Vilniaus Apskritis"},{"id":"107","title":"Nemen\u010din\u0117s pl. 2, Vilnius","postal_code":"LT-10109","code":"0126","address":"Nemen\u010din\u0117s pl. 2, Vilnius","city":"Vilnius","name_for_sorting":"Vilnius","magento_region_id":"484","magento_region_code":"LT-VL","magento_region_name":"Vilniaus Apskritis"},{"id":"108","title":"Architekt\u0173 g. 43, Vilnius","postal_code":"LT-04221","code":"0127","address":"Architekt\u0173 g. 43, Vilnius","city":"Vilnius","name_for_sorting":"Vilnius","magento_region_id":"484","magento_region_code":"LT-VL","magento_region_name":"Vilniaus Apskritis"},{"id":"109","title":"Dangeru\u010dio g.1, Vilnius","postal_code":"LT-14332","code":"0128","address":"Dangeru\u010dio g.1, Vilnius","city":"Vilnius","name_for_sorting":"Vilnius","magento_region_id":"484","magento_region_code":"LT-VL","magento_region_name":"Vilniaus Apskritis"},{"id":"113","title":"Ateities g. 4A, Vilnius","postal_code":"LT-08345","code":"0129","address":"Ateities g. 4A, Vilnius","city":"Vilnius","name_for_sorting":"Vilnius","magento_region_id":"484","magento_region_code":"LT-VL","magento_region_name":"Vilniaus Apskritis"},{"id":"118","title":"Pergal\u0117s g. 42, Vilnius","postal_code":"LT-11202","code":"0130","address":"Pergal\u0117s g. 42, Vilnius","city":"Vilnius","name_for_sorting":"Vilnius","magento_region_id":"484","magento_region_code":"LT-VL","magento_region_name":"Vilniaus Apskritis"},{"id":"120","title":"Justini\u0161ki\u0173 g. 126, Vilnius","postal_code":"LT-05268","code":"0131","address":"Justini\u0161ki\u0173 g. 126, Vilnius","city":"Vilnius","name_for_sorting":"Vilnius","magento_region_id":"484","magento_region_code":"LT-VL","magento_region_name":"Vilniaus Apskritis"},{"id":"125","title":"Zaras\u0173 g. 5A, Vilnius","postal_code":"LT-01205","code":"0132","address":"Zaras\u0173 g. 5A, Vilnius","city":"Vilnius","name_for_sorting":"Vilnius","magento_region_id":"484","magento_region_code":"LT-VL","magento_region_name":"Vilniaus Apskritis"},{"id":"126","title":"Kareivi\u0173 g. 11A, Vilnius","postal_code":"LT-09109","code":"0133","address":"Kareivi\u0173 g. 11A, Vilnius","city":"Vilnius","name_for_sorting":"Vilnius","magento_region_id":"484","magento_region_code":"LT-VL","magento_region_name":"Vilniaus Apskritis"},{"id":"129","title":"Visalaukio g. 1, Vilnius","postal_code":"LT-08428","code":"0134","address":"Visalaukio g. 1, Vilnius","city":"Vilnius","name_for_sorting":"Vilnius","magento_region_id":"484","magento_region_code":"LT-VL","magento_region_name":"Vilniaus Apskritis"},{"id":"130","title":"Laisv\u0117s pr. 26, Vilnius","postal_code":"LT-04315","code":"0135","address":"Laisv\u0117s pr. 26, Vilnius","city":"Vilnius","name_for_sorting":"Vilnius","magento_region_id":"484","magento_region_code":"LT-VL","magento_region_name":"Vilniaus Apskritis"},{"id":"131","title":"Up\u0117s g. 9, Vilnius","postal_code":"LT-09308","code":"0136","address":"Up\u0117s g. 9, Vilnius","city":"Vilnius","name_for_sorting":"Vilnius","magento_region_id":"484","magento_region_code":"LT-VL","magento_region_name":"Vilniaus Apskritis"},{"id":"132","title":"Antakalnio g. 75A, Vilnius","postal_code":"LT-10213","code":"0137","address":"Antakalnio g. 75A, Vilnius","city":"Vilnius","name_for_sorting":"Vilnius","magento_region_id":"484","magento_region_code":"LT-VL","magento_region_name":"Vilniaus Apskritis"},{"id":"133","title":"Mindaugo g. 11, Vilnius","postal_code":"LT-03225","code":"0138","address":"Mindaugo g. 11, Vilnius","city":"Vilnius","name_for_sorting":"Vilnius","magento_region_id":"484","magento_region_code":"LT-VL","magento_region_name":"Vilniaus Apskritis"},{"id":"134","title":"Liepkalnio g.102 A, Vilnius, Vilnius","postal_code":"LT-02121","code":"0139","address":"Liepkalnio g.102 A, Vilnius, Vilnius","city":"Vilnius","name_for_sorting":"Vilnius","magento_region_id":"484","magento_region_code":"LT-VL","magento_region_name":"Vilniaus Apskritis"},{"id":"258","title":"Geni\u0173 g. 10A, Vilnius","postal_code":"LT-11219","code":"0140","address":"Geni\u0173 g. 10A, Vilnius","city":"Vilnius","name_for_sorting":"Vilnius","magento_region_id":"484","magento_region_code":"LT-VL","magento_region_name":"Vilniaus Apskritis"},{"id":"260","title":"Vir\u0161uli\u0161ki\u0173 g. 40 , Vilnius","postal_code":"LT-05110","code":"0141","address":"Vir\u0161uli\u0161ki\u0173 g. 40 , Vilnius","city":"Vilnius","name_for_sorting":"Vilnius","magento_region_id":"484","magento_region_code":"LT-VL","magento_region_name":"Vilniaus Apskritis"},{"id":"261","title":"Gilu\u017eio g. 5, Vilnius","postal_code":"LT-06236","code":"0142","address":"Gilu\u017eio g. 5, Vilnius","city":"Vilnius","name_for_sorting":"Vilnius","magento_region_id":"484","magento_region_code":"LT-VL","magento_region_name":"Vilniaus Apskritis"},{"id":"265","title":"Ateities g. 91, Vilnius","postal_code":"LT-06324","code":"0143","address":"Ateities g. 91, Vilnius","city":"Vilnius","name_for_sorting":"Vilnius","magento_region_id":"484","magento_region_code":"LT-VL","magento_region_name":"Vilniaus Apskritis"},{"id":"271","title":"Gabijos g. 34, Vilnius","postal_code":"LT-06158","code":"0144","address":"Gabijos g. 34, Vilnius","city":"Vilnius","name_for_sorting":"Vilnius","magento_region_id":"484","magento_region_code":"LT-VL","magento_region_name":"Vilniaus Apskritis"},{"id":"272","title":"Savanori\u0173 pr. 1, Vilnius","postal_code":"LT-03116","code":"0145","address":"Savanori\u0173 pr. 1, Vilnius","city":"Vilnius","name_for_sorting":"Vilnius","magento_region_id":"484","magento_region_code":"LT-VL","magento_region_name":"Vilniaus Apskritis"},{"id":"273","title":"Didlaukio g. 80A, Vilnius","postal_code":"LT-08326","code":"0146","address":"Didlaukio g. 80A, Vilnius","city":"Vilnius","name_for_sorting":"Vilnius","magento_region_id":"484","magento_region_code":"LT-VL","magento_region_name":"Vilniaus Apskritis"},{"id":"274","title":"Kedr\u0173 g. 4, Vilnius","postal_code":"LT-03116","code":"0147","address":"Kedr\u0173 g. 4, Vilnius","city":"Vilnius","name_for_sorting":"Vilnius","magento_region_id":"484","magento_region_code":"LT-VL","magento_region_name":"Vilniaus Apskritis"},{"id":"275","title":"Savanori\u0173 pr. 31, Vilnius","postal_code":"LT-03128","code":"0148","address":"Savanori\u0173 pr. 31, Vilnius","city":"Vilnius","name_for_sorting":"Vilnius","magento_region_id":"484","magento_region_code":"LT-VL","magento_region_name":"Vilniaus Apskritis"},{"id":"276","title":"Jeruzal\u0117s g. 14, Vilnius","postal_code":"LT-08415","code":"0149","address":"Jeruzal\u0117s g. 14, Vilnius","city":"Vilnius","name_for_sorting":"Vilnius","magento_region_id":"484","magento_region_code":"LT-VL","magento_region_name":"Vilniaus Apskritis"},{"id":"277","title":"Polocko g.42a, Vilnius","postal_code":"LT-01205","code":"0150","address":"Polocko g.42a, Vilnius","city":"Vilnius","name_for_sorting":"Vilnius","magento_region_id":"484","magento_region_code":"LT-VL","magento_region_name":"Vilniaus Apskritis"},{"id":"278","title":"Medeinos g. 39, Vilnius","postal_code":"LT-06138","code":"0151","address":"Medeinos g. 39, Vilnius","city":"Vilnius","name_for_sorting":"Vilnius","magento_region_id":"484","magento_region_code":"LT-VL","magento_region_name":"Vilniaus Apskritis"},{"id":"279","title":"Ukmerg\u0117s g. 308, Vilnius","postal_code":"LT-12110","code":"0152","address":"Ukmerg\u0117s g. 308, Vilnius","city":"Vilnius","name_for_sorting":"Vilnius","magento_region_id":"484","magento_region_code":"LT-VL","magento_region_name":"Vilniaus Apskritis"},{"id":"280","title":"Nemen\u010din\u0117s pl. 33, Vilnius","postal_code":"LT-10105","code":"0153","address":"Nemen\u010din\u0117s pl. 33, Vilnius","city":"Vilnius","name_for_sorting":"Vilnius","magento_region_id":"484","magento_region_code":"LT-VL","magento_region_name":"Vilniaus Apskritis"},{"id":"281","title":"Dariaus ir Gir\u0117no g. 19B, Vilnius","postal_code":"LT-02184","code":"0154","address":"Dariaus ir Gir\u0117no g. 19B, Vilnius","city":"Vilnius","name_for_sorting":"Vilnius","magento_region_id":"484","magento_region_code":"LT-VL","magento_region_name":"Vilniaus Apskritis"},{"id":"282","title":"Rygos g. 49, Vilnius","postal_code":"LT-05203","code":"0155","address":"Rygos g. 49, Vilnius","city":"Vilnius","name_for_sorting":"Vilnius","magento_region_id":"484","magento_region_code":"LT-VL","magento_region_name":"Vilniaus Apskritis"},{"id":"283","title":"Vyd\u016bno g. 4, Vilnius","postal_code":"LT-06204","code":"0156","address":"Vyd\u016bno g. 4, Vilnius","city":"Vilnius","name_for_sorting":"Vilnius","magento_region_id":"484","magento_region_code":"LT-VL","magento_region_name":"Vilniaus Apskritis"},{"id":"284","title":"Jona\u017eoli\u0173 g. 1, Vilnius","postal_code":"LT-04134","code":"0157","address":"Jona\u017eoli\u0173 g. 1, Vilnius","city":"Vilnius","name_for_sorting":"Vilnius","magento_region_id":"484","magento_region_code":"LT-VL","magento_region_name":"Vilniaus Apskritis"},{"id":"285","title":"\u0160e\u0161kin\u0117s g. 32, Vilnius","postal_code":"LT-07157","code":"0158","address":"\u0160e\u0161kin\u0117s g. 32, Vilnius","city":"Vilnius","name_for_sorting":"Vilnius","magento_region_id":"484","magento_region_code":"LT-VL","magento_region_name":"Vilniaus Apskritis"},{"id":"286","title":"\u017dirm\u016bn\u0173 g. 64, Vilnius","postal_code":"LT-09131","code":"0159","address":"\u017dirm\u016bn\u0173 g. 64, Vilnius","city":"Vilnius","name_for_sorting":"Vilnius","magento_region_id":"484","magento_region_code":"LT-VL","magento_region_name":"Vilniaus Apskritis"},{"id":"287","title":"Sausio 13-osios g. 2, Vilnius","postal_code":"LT-04343","code":"0160","address":"Sausio 13-osios g. 2, Vilnius","city":"Vilnius","name_for_sorting":"Vilnius","magento_region_id":"484","magento_region_code":"LT-VL","magento_region_name":"Vilniaus Apskritis"},{"id":"288","title":"Gedimino pr. 9, Vilnius","postal_code":"LT-01105","code":"0161","address":"Gedimino pr. 9, Vilnius","city":"Vilnius","name_for_sorting":"Vilnius","magento_region_id":"484","magento_region_code":"LT-VL","magento_region_name":"Vilniaus Apskritis"},{"id":"295","title":"Saltoni\u0161ki\u0173 g. 29, Vilnius","postal_code":"LT-08105","code":"0162","address":"Saltoni\u0161ki\u0173 g. 29, Vilnius","city":"Vilnius","name_for_sorting":"Vilnius","magento_region_id":"484","magento_region_code":"LT-VL","magento_region_name":"Vilniaus Apskritis"},{"id":"300","title":"Dominikon\u0173 g. 4, Vilnius","postal_code":"LT-01131","code":"0163","address":"Dominikon\u0173 g. 4, Vilnius","city":"Vilnius","name_for_sorting":"Vilnius","magento_region_id":"484","magento_region_code":"LT-VL","magento_region_name":"Vilniaus Apskritis"},{"id":"311","title":"Saul\u0117tekio al. 43, Vilnius","postal_code":"LT-10227","code":"0164","address":"Saul\u0117tekio al. 43, Vilnius","city":"Vilnius","name_for_sorting":"Vilnius","magento_region_id":"484","magento_region_code":"LT-VL","magento_region_name":"Vilniaus Apskritis"},{"id":"312","title":"\u0160iaur\u0117s g. 37, Vilnius","postal_code":"LT-11107","code":"0165","address":"\u0160iaur\u0117s g. 37, Vilnius","city":"Vilnius","name_for_sorting":"Vilnius","magento_region_id":"484","magento_region_code":"LT-VL","magento_region_name":"Vilniaus Apskritis"},{"id":"313","title":"A.P Kavoliuko g. 6, Vilnius","postal_code":"LT-04326","code":"0166","address":"A.P Kavoliuko g. 6, Vilnius","city":"Vilnius","name_for_sorting":"Vilnius","magento_region_id":"484","magento_region_code":"LT-VL","magento_region_name":"Vilniaus Apskritis"},{"id":"314","title":"Salinink\u0173 g. 129A, Vilnius","postal_code":"LT-02210","code":"0167","address":"Salinink\u0173 g. 129A, Vilnius","city":"Vilnius","name_for_sorting":"Vilnius","magento_region_id":"484","magento_region_code":"LT-VL","magento_region_name":"Vilniaus Apskritis"},{"id":"315","title":"Rygos g. 8, Vilnius","postal_code":"LT-05270","code":"0168","address":"Rygos g. 8, Vilnius","city":"Vilnius","name_for_sorting":"Vilnius","magento_region_id":"484","magento_region_code":"LT-VL","magento_region_name":"Vilniaus Apskritis"},{"id":"316","title":"Senasis Ukmerg\u0117s kl. 46A, Vilnius","postal_code":"LT-14302","code":"0169","address":"Senasis Ukmerg\u0117s kl. 46A, Vilnius","city":"Vilnius","name_for_sorting":"Vilnius","magento_region_id":"484","magento_region_code":"LT-VL","magento_region_name":"Vilniaus Apskritis"},{"id":"351","title":"Santaros g. 5, Vilnius","postal_code":"LT-08409","code":"0170","address":"Santaros g. 5, Vilnius","city":"Vilnius","name_for_sorting":"Vilnius","magento_region_id":"484","magento_region_code":"LT-VL","magento_region_name":"Vilniaus Apskritis"},{"id":"352","title":"\u017dali\u0173j\u0173 e\u017eer\u0173 g. 207, Vilnius","postal_code":"LT-08471","code":"0171","address":"\u017dali\u0173j\u0173 e\u017eer\u0173 g. 207, Vilnius","city":"Vilnius","name_for_sorting":"Vilnius","magento_region_id":"484","magento_region_code":"LT-VL","magento_region_name":"Vilniaus Apskritis"},{"id":"366","title":"Pavilnioni\u0173 g. 22, Vilnius","postal_code":"LT-05273","code":"0172","address":"Pavilnioni\u0173 g. 22, Vilnius","city":"Vilnius","name_for_sorting":"Vilnius","magento_region_id":"484","magento_region_code":"LT-VL","magento_region_name":"Vilniaus Apskritis"},{"id":"367","title":"P.\u017dvirkos g. 1, Vilnius","postal_code":"LT-02210","code":"0173","address":"P.\u017dvirkos g. 1, Vilnius","city":"Vilnius","name_for_sorting":"Vilnius","magento_region_id":"484","magento_region_code":"LT-VL","magento_region_name":"Vilniaus Apskritis"},{"id":"377","title":"Sausio 13-osios g. 3, Vilnius","postal_code":"LT-04343","code":"0178","address":"Sausio 13-osios g. 3, Vilnius","city":"Vilnius","name_for_sorting":"Vilnius","magento_region_id":"484","magento_region_code":"LT-VL","magento_region_name":"Vilniaus Apskritis"},{"id":"378","title":"Nidos g. 1, Vilnius","postal_code":"LT-06293","code":"0180","address":"Nidos g. 1, Vilnius","city":"Vilnius","name_for_sorting":"Vilnius","magento_region_id":"484","magento_region_code":"LT-VL","magento_region_name":"Vilniaus Apskritis"},{"id":"380","title":"D\u016bk\u0161t\u0173 g. 34 , Vilnius","postal_code":"LT-07171","code":"0176","address":"D\u016bk\u0161t\u0173 g. 34 , Vilnius","city":"Vilnius","name_for_sorting":"Vilnius","magento_region_id":"484","magento_region_code":"LT-VL","magento_region_name":"Vilniaus Apskritis"},{"id":"381","title":"S. N\u0117ries g. 16, Vilnius","postal_code":"LT-06305","code":"0183","address":"S. N\u0117ries g. 16, Vilnius","city":"Vilnius","name_for_sorting":"Vilnius","magento_region_id":"484","magento_region_code":"LT-VL","magento_region_name":"Vilniaus Apskritis"},{"id":"382","title":"Kalvarij\u0173 g.  180, Vilnius","postal_code":"LT-08204","code":"0175","address":"Kalvarij\u0173 g.  180, Vilnius","city":"Vilnius","name_for_sorting":"Vilnius","magento_region_id":"484","magento_region_code":"LT-VL","magento_region_name":"Vilniaus Apskritis"},{"id":"383","title":"Kaps\u0173 g. 1, Vilnius","postal_code":"LT-02169","code":"0174","address":"Kaps\u0173 g. 1, Vilnius","city":"Vilnius","name_for_sorting":"Vilnius","magento_region_id":"484","magento_region_code":"LT-VL","magento_region_name":"Vilniaus Apskritis"},{"id":"387","title":"Ras\u0173 g. 9A, Vilnius","postal_code":"LT-02102","code":"0177","address":"Ras\u0173 g. 9A, Vilnius","city":"Vilnius","name_for_sorting":"Vilnius","magento_region_id":"484","magento_region_code":"LT-VL","magento_region_name":"Vilniaus Apskritis"},{"id":"398","title":"Vaivadi\u0161ki\u0173 g. 2, Vilnius","postal_code":"LT-12151","code":"0179","address":"Vaivadi\u0161ki\u0173 g. 2, Vilnius","city":"Vilnius","name_for_sorting":"Vilnius","magento_region_id":"484","magento_region_code":"LT-VL","magento_region_name":"Vilniaus Apskritis"},{"id":"399","title":"\u017dirm\u016bn\u0173 g. 67, Vilnius","postal_code":"LT-09112","code":"0184","address":"\u017dirm\u016bn\u0173 g. 67, Vilnius","city":"Vilnius","name_for_sorting":"Vilnius","magento_region_id":"484","magento_region_code":"LT-VL","magento_region_name":"Vilniaus Apskritis"},{"id":"400","title":"J. Ti\u0161kevi\u010diaus g. 17, Vilnius","postal_code":"LT-02231","code":"0182","address":"J. Ti\u0161kevi\u010diaus g. 17, Vilnius","city":"Vilnius","name_for_sorting":"Vilnius","magento_region_id":"484","magento_region_code":"LT-VL","magento_region_name":"Vilniaus Apskritis"},{"id":"408","title":"S. Stanevi\u010diaus g. 2A, Vilnius","postal_code":"LT-07129","code":"0185","address":"S. Stanevi\u010diaus g. 2A, Vilnius","city":"Vilnius","name_for_sorting":"Vilnius","magento_region_id":"484","magento_region_code":"LT-VL","magento_region_name":"Vilniaus Apskritis"},{"id":"410","title":"Auk\u0161tai\u010di\u0173 g. 7, Vilnius","postal_code":"LT-11341","code":"0186","address":"Auk\u0161tai\u010di\u0173 g. 7, Vilnius","city":"Vilnius","name_for_sorting":"Vilnius","magento_region_id":"484","magento_region_code":"LT-VL","magento_region_name":"Vilniaus Apskritis"},{"id":"418","title":"Saul\u0117s g. 1, Vilnius","postal_code":"LT-14185","code":"0187","address":"Saul\u0117s g. 1, Vilnius","city":"Vilnius","name_for_sorting":"Vilnius","magento_region_id":"484","magento_region_code":"LT-VL","magento_region_name":"Vilniaus Apskritis"},{"id":"419","title":"Morav\u0173 g. 7, Vilnius","postal_code":"LT-11329","code":"0188","address":"Morav\u0173 g. 7, Vilnius","city":"Vilnius","name_for_sorting":"Vilnius","magento_region_id":"484","magento_region_code":"LT-VL","magento_region_name":"Vilniaus Apskritis"},{"id":"421","title":"Zuj\u016bn\u0173 g. 1, Vilnius","postal_code":"LT-06282","code":"0189","address":"Zuj\u016bn\u0173 g. 1, Vilnius","city":"Vilnius","name_for_sorting":"Vilnius","magento_region_id":"484","magento_region_code":"LT-VL","magento_region_name":"Vilniaus Apskritis"},{"id":"423","title":"Pramon\u0117s g. 17A, Vilnius","postal_code":"LT-11118","code":"0190","address":"Pramon\u0117s g. 17A, Vilnius","city":"Vilnius","name_for_sorting":"Vilnius","magento_region_id":"484","magento_region_code":"LT-VL","magento_region_name":"Vilniaus Apskritis"},{"id":"427","title":"L.Sapiegos g. 1C, Vilnius","postal_code":"LT-10312","code":"0191","address":"L.Sapiegos g. 1C, Vilnius","city":"Vilnius","name_for_sorting":"Vilnius","magento_region_id":"484","magento_region_code":"LT-VL","magento_region_name":"Vilniaus Apskritis"},{"id":"428","title":"Gari\u016bn\u0173 g. 66, Vilnius","postal_code":"LT-02300","code":"0192","address":"Gari\u016bn\u0173 g. 66, Vilnius","city":"Vilnius","name_for_sorting":"Vilnius","magento_region_id":"484","magento_region_code":"LT-VL","magento_region_name":"Vilniaus Apskritis"},{"id":"451","title":"Pelesos g. 57, Vilnius","postal_code":"LT-02109","code":"0193","address":"Pelesos g. 57, Vilnius","city":"Vilnius","name_for_sorting":"Vilnius","magento_region_id":"484","magento_region_code":"LT-VL","magento_region_name":"Vilniaus Apskritis"},{"id":"457","title":"\u017dvaig\u017ediki\u0173 g. 2, Vilnius","postal_code":"LT-10238","code":"0194","address":"\u017dvaig\u017ediki\u0173 g. 2, Vilnius","city":"Vilnius","name_for_sorting":"Vilnius","magento_region_id":"484","magento_region_code":"LT-VL","magento_region_name":"Vilniaus Apskritis"},{"id":"459","title":"Vaduvos g. 4, Vilnius","postal_code":"LT-02304","code":"0195","address":"Vaduvos g. 4, Vilnius","city":"Vilnius","name_for_sorting":"Vilnius","magento_region_id":"484","magento_region_code":"LT-VL","magento_region_name":"Vilniaus Apskritis"},{"id":"470","title":"Antakalnio g. 75, Vilnius","postal_code":"LT-10213","code":"0196","address":"Antakalnio g. 75, Vilnius","city":"Vilnius","name_for_sorting":"Vilnius","magento_region_id":"484","magento_region_code":"LT-VL","magento_region_name":"Vilniaus Apskritis"},{"id":"480","title":"Lazdyn\u0117li\u0173 g. 23, Vilnius","postal_code":"LT-04126","code":"0198","address":"Lazdyn\u0117li\u0173 g. 23, Vilnius","city":"Vilnius","name_for_sorting":"Vilnius","magento_region_id":"484","magento_region_code":"LT-VL","magento_region_name":"Vilniaus Apskritis"},{"id":"491","title":"\u017dirm\u016bn\u0173 g. 48A, Vilnius","postal_code":"LT-09226","code":"0199","address":"\u017dirm\u016bn\u0173 g. 48A, Vilnius","city":"Vilnius","name_for_sorting":"Vilnius","magento_region_id":"484","magento_region_code":"LT-VL","magento_region_name":"Vilniaus Apskritis"},{"id":"498","title":"Erfurto g. 1, Vilnius","postal_code":"LT-04220","code":"7531","address":"Erfurto g. 1, Vilnius","city":"Vilnius","name_for_sorting":"Vilnius","magento_region_id":"484","magento_region_code":"LT-VL","magento_region_name":"Vilniaus Apskritis"},{"id":"500","title":"Lvivo g. 37,, Vilnius","postal_code":"LT-09307","code":"7501","address":"Lvivo g. 37,, Vilnius","city":"Vilnius","name_for_sorting":"Vilnius","magento_region_id":"484","magento_region_code":"LT-VL","magento_region_name":"Vilniaus Apskritis"},{"id":"501","title":"Konstitucijos pr. 29, Vilnius","postal_code":"LT-08105","code":"7502","address":"Konstitucijos pr. 29, Vilnius","city":"Vilnius","name_for_sorting":"Vilnius","magento_region_id":"484","magento_region_code":"LT-VL","magento_region_name":"Vilniaus Apskritis"},{"id":"502","title":"Juozapavi\u010diaus g. 13, Vilnius","postal_code":"LT-09311","code":"7503","address":"Juozapavi\u010diaus g. 13, Vilnius","city":"Vilnius","name_for_sorting":"Vilnius","magento_region_id":"484","magento_region_code":"LT-VL","magento_region_name":"Vilniaus Apskritis"},{"id":"503","title":"Kalvarij\u0173 g. 88, Vilnius","postal_code":"LT-09303","code":"7504","address":"Kalvarij\u0173 g. 88, Vilnius","city":"Vilnius","name_for_sorting":"Vilnius","magento_region_id":"484","magento_region_code":"LT-VL","magento_region_name":"Vilniaus Apskritis"},{"id":"504","title":"Parko g. 37A, Vilnius","postal_code":"LT-11228","code":"7505","address":"Parko g. 37A, Vilnius","city":"Vilnius","name_for_sorting":"Vilnius","magento_region_id":"484","magento_region_code":"LT-VL","magento_region_name":"Vilniaus Apskritis"},{"id":"505","title":"Ulon\u0173 g. 2, Vilnius","postal_code":"LT-08245","code":"7506","address":"Ulon\u0173 g. 2, Vilnius","city":"Vilnius","name_for_sorting":"Vilnius","magento_region_id":"484","magento_region_code":"LT-VL","magento_region_name":"Vilniaus Apskritis"},{"id":"509","title":"Ozo g. 14C, Vilnius","postal_code":"LT-08200","code":"7510","address":"Ozo g. 14C, Vilnius","city":"Vilnius","name_for_sorting":"Vilnius","magento_region_id":"484","magento_region_code":"LT-VL","magento_region_name":"Vilniaus Apskritis"},{"id":"512","title":"V. Poci\u016bno g. 10, Vilnius","postal_code":"LT-06298","code":"7513","address":"V. Poci\u016bno g. 10, Vilnius","city":"Vilnius","name_for_sorting":"Vilnius","magento_region_id":"484","magento_region_code":"LT-VL","magento_region_name":"Vilniaus Apskritis"},{"id":"515","title":"Spaudos g. 8, Vilnius","postal_code":"LT-01131","code":"7516","address":"Spaudos g. 8, Vilnius","city":"Vilnius","name_for_sorting":"Vilnius","magento_region_id":"484","magento_region_code":"LT-VL","magento_region_name":"Vilniaus Apskritis"},{"id":"516","title":"Justini\u0161ki\u0173 g.12, Vilnius","postal_code":"LT-05131","code":"7517","address":"Justini\u0161ki\u0173 g.12, Vilnius","city":"Vilnius","name_for_sorting":"Vilnius","magento_region_id":"484","magento_region_code":"LT-VL","magento_region_name":"Vilniaus Apskritis"},{"id":"517","title":"Mol\u0117t\u0173 pl. 47B, Vilnius","postal_code":"LT-08421","code":"7518","address":"Mol\u0117t\u0173 pl. 47B, Vilnius","city":"Vilnius","name_for_sorting":"Vilnius","magento_region_id":"484","magento_region_code":"LT-VL","magento_region_name":"Vilniaus Apskritis"},{"id":"520","title":"Zuj\u016bn\u0173 g. 5, Vilnius","postal_code":"LT-06200","code":"7521","address":"Zuj\u016bn\u0173 g. 5, Vilnius","city":"Vilnius","name_for_sorting":"Vilnius","magento_region_id":"484","magento_region_code":"LT-VL","magento_region_name":"Vilniaus Apskritis"},{"id":"532","title":"J. Kazlausko g. 33, Vilnius","postal_code":"LT-08314","code":"7534","address":"J. Kazlausko g. 33, Vilnius","city":"Vilnius","name_for_sorting":"Vilnius","magento_region_id":"484","magento_region_code":"LT-VL","magento_region_name":"Vilniaus Apskritis"},{"id":"535","title":"Ukmerg\u0117s g. 246, Vilnius","postal_code":"LT-07160","code":"7537","address":"Ukmerg\u0117s g. 246, Vilnius","city":"Vilnius","name_for_sorting":"Vilnius","magento_region_id":"484","magento_region_code":"LT-VL","magento_region_name":"Vilniaus Apskritis"},{"id":"536","title":"Santari\u0161ki\u0173 g. 1, Vilnius","postal_code":"LT-08406","code":"7538","address":"Santari\u0161ki\u0173 g. 1, Vilnius","city":"Vilnius","name_for_sorting":"Vilnius","magento_region_id":"484","magento_region_code":"LT-VL","magento_region_name":"Vilniaus Apskritis"},{"id":"538","title":"Ukmerg\u0117s g. 130, Vilnius","postal_code":"LT-08100","code":"7540","address":"Ukmerg\u0117s g. 130, Vilnius","city":"Vilnius","name_for_sorting":"Vilnius","magento_region_id":"484","magento_region_code":"LT-VL","magento_region_name":"Vilniaus Apskritis"},{"id":"550","title":"Mokyklos g.2C, Galgiai, Vilnius","postal_code":"LT-13104","code":"0181","address":"Mokyklos g.2C, Galgiai, Vilnius","city":"Vilnius","name_for_sorting":"Vilnius","magento_region_id":"484","magento_region_code":"LT-VL","magento_region_name":"Vilniaus Apskritis"},{"id":"552","title":"Buivydi\u0161ki\u0173 g.1a, Zuj\u016bnai,, Vilnius","postal_code":"LT-14160","code":"0001","address":"Buivydi\u0161ki\u0173 g.1a, Zuj\u016bnai,, Vilnius","city":"Vilnius","name_for_sorting":"Vilnius","magento_region_id":"484","magento_region_code":"LT-VL","magento_region_name":"Vilniaus Apskritis"},{"id":"555","title":"Gedimino pr. 9, Vilnius","postal_code":"LT-01105","code":"7541","address":"Gedimino pr. 9, Vilnius","city":"Vilnius","name_for_sorting":"Vilnius","magento_region_id":"484","magento_region_code":"LT-VL","magento_region_name":"Vilniaus Apskritis"},{"id":"556","title":"Ukmerg\u0117s g. 308, Vilnius","postal_code":"LT-12110","code":"7542","address":"Ukmerg\u0117s g. 308, Vilnius","city":"Vilnius","name_for_sorting":"Vilnius","magento_region_id":"484","magento_region_code":"LT-VL","magento_region_name":"Vilniaus Apskritis"},{"id":"560","title":"Ateities g. 10, Vilnius","postal_code":"LT-06324","code":"7547","address":"Ateities g. 10, Vilnius","city":"Vilnius","name_for_sorting":"Vilnius","magento_region_id":"484","magento_region_code":"LT-VL","magento_region_name":"Vilniaus Apskritis"},{"id":"568","title":"Visalaukio g. 1, Vilnius","postal_code":"LT-08428","code":"7556","address":"Visalaukio g. 1, Vilnius","city":"Vilnius","name_for_sorting":"Vilnius","magento_region_id":"484","magento_region_code":"LT-VL","magento_region_name":"Vilniaus Apskritis"},{"id":"570","title":"Senasis Ukmerg\u0117s kl. 46A, Vilnius","postal_code":"LT-14302","code":"7558","address":"Senasis Ukmerg\u0117s kl. 46A, Vilnius","city":"Vilnius","name_for_sorting":"Vilnius","magento_region_id":"484","magento_region_code":"LT-VL","magento_region_name":"Vilniaus Apskritis"},{"id":"573","title":"Architekt\u0173 g. 214, Vilnius","postal_code":"LT-04215","code":"0002","address":"Architekt\u0173 g. 214, Vilnius","city":"Vilnius","name_for_sorting":"Vilnius","magento_region_id":"484","magento_region_code":"LT-VL","magento_region_name":"Vilniaus Apskritis"},{"id":"577","title":"\u0160vitrigailos g.13, Vilnius","postal_code":"LT-03209","code":"0003","address":"\u0160vitrigailos g.13, Vilnius","city":"Vilnius","name_for_sorting":"Vilnius","magento_region_id":"484","magento_region_code":"LT-VL","magento_region_name":"Vilniaus Apskritis"},{"id":"45","title":"Taikos g. 66, Visaginas","postal_code":"LT-31204","code":"1501","address":"Taikos g. 66, Visaginas","city":"Visaginas","name_for_sorting":"Visaginas","magento_region_id":"483","magento_region_code":"LT-UT","magento_region_name":"Utenos Apskritis"},{"id":"336","title":"Veteran\u0173 g. 9, Visaginas","postal_code":"LT-31114","code":"1505","address":"Veteran\u0173 g. 9, Visaginas","city":"Visaginas","name_for_sorting":"Visaginas","magento_region_id":"483","magento_region_code":"LT-UT","magento_region_name":"Utenos Apskritis"},{"id":"468","title":"Parko g. 7B-6, Visaginas","postal_code":"LT-31131","code":"1508","address":"Parko g. 7B-6, Visaginas","city":"Visaginas","name_for_sorting":"Visaginas","magento_region_id":"483","magento_region_code":"LT-UT","magento_region_name":"Utenos Apskritis"},{"id":"463","title":"Miesto a. 8, \u017dagar\u0117","postal_code":"LT-84322","code":"3103","address":"Miesto a. 8, \u017dagar\u0117","city":"\u017dagar\u0117","name_for_sorting":"\u017dagar\u0117","magento_region_id":"480","magento_region_code":"LT-SA","magento_region_name":"\u0160iauli\u0173 Apskritis"},{"id":"66","title":"D. Bukonto g. 7, Zarasai","postal_code":"LT-32132","code":"3601","address":"D. Bukonto g. 7, Zarasai","city":"Zarasai","name_for_sorting":"Zarasai","magento_region_id":"483","magento_region_code":"LT-UT","magento_region_name":"Utenos Apskritis"},{"id":"310","title":"\u017d\u0105sli\u0173 g. 5, \u017die\u017emariai","postal_code":"LT-56235","code":"4202","address":"\u017d\u0105sli\u0173 g. 5, \u017die\u017emariai","city":"\u017die\u017emariai","name_for_sorting":"\u017die\u017emariai","magento_region_id":"476","magento_region_code":"LT-KU","magento_region_name":"Kauno Apskritis"}]